; 7x7像素文字 - 可直接列印版本
; 文字: HELLO
; 像素尺寸: 5mm
; 厚度: 2mm (10層)
; 列印樣式: 實心
; 噴嘴直徑: 0.4mm
; 線材直徑: 1.75mm
; 層高: 0.2mm
; 第一層高度: 0.3mm
; 生成時間: 2025/12/16 下午6:43:41

; ============ 初始化設定 ============
G21 ; 毫米單位
G90 ; 絕對座標
M82 ; 絕對擠出模式
M140 S60 ; 設定熱床溫度
M104 S210 ; 設定噴頭溫度
M190 S60 ; 等待熱床達到溫度
M109 S210 ; 等待噴頭達到溫度
G28 ; 所有軸歸零
G92 E0 ; 重置擠出機
M83 ; 相對擠出模式

; ============ 清潔噴嘴 ============
G1 Z10 F7200
G1 X5 Y5 F7200
G1 Z0.2 F7200
G1 E3 F60 ; 擠出3mm清理噴嘴
G92 E0 ; 重置擠出機
G1 Z10 F7200

; ============ 開始列印 ============

; ============ 第一層 ============
G1 Z0.30 F7200
G1 X20.00 Y20.00 F7200
G1 E0.9978 F2700
G1 X25.00 Y20.00 E0.9978 F1800
G1 X25.00 Y25.00 E0.9978
G1 X20.00 Y25.00 E0.9978
G1 X20.00 Y20.00 E0.9978
G1 X20.00 Y20.40 E0
G1 X25.00 Y20.40 E0.2495
G1 X20.00 Y20.80 E0
G1 X25.00 Y20.80 E0.2495
G1 X20.00 Y21.20 E0
G1 X25.00 Y21.20 E0.2495
G1 X20.00 Y21.60 E0
G1 X25.00 Y21.60 E0.2495
G1 X20.00 Y22.00 E0
G1 X25.00 Y22.00 E0.2495
G1 X20.00 Y22.40 E0
G1 X25.00 Y22.40 E0.2495
G1 X20.00 Y22.80 E0
G1 X25.00 Y22.80 E0.2495
G1 X20.00 Y23.20 E0
G1 X25.00 Y23.20 E0.2495
G1 X20.00 Y23.60 E0
G1 X25.00 Y23.60 E0.2495
G1 X20.00 Y24.00 E0
G1 X25.00 Y24.00 E0.2495
G1 X20.00 Y24.40 E0
G1 X25.00 Y24.40 E0.2495
G1 E-1 F2700
G1 Z0.80 F7200

G1 X50.00 Y20.00 F7200
G1 E0.9978 F2700
G1 X55.00 Y20.00 E0.9978 F1800
G1 X55.00 Y25.00 E0.9978
G1 X50.00 Y25.00 E0.9978
G1 X50.00 Y20.00 E0.9978
G1 X50.00 Y20.40 E0
G1 X55.00 Y20.40 E0.2495
G1 X50.00 Y20.80 E0
G1 X55.00 Y20.80 E0.2495
G1 X50.00 Y21.20 E0
G1 X55.00 Y21.20 E0.2495
G1 X50.00 Y21.60 E0
G1 X55.00 Y21.60 E0.2495
G1 X50.00 Y22.00 E0
G1 X55.00 Y22.00 E0.2495
G1 X50.00 Y22.40 E0
G1 X55.00 Y22.40 E0.2495
G1 X50.00 Y22.80 E0
G1 X55.00 Y22.80 E0.2495
G1 X50.00 Y23.20 E0
G1 X55.00 Y23.20 E0.2495
G1 X50.00 Y23.60 E0
G1 X55.00 Y23.60 E0.2495
G1 X50.00 Y24.00 E0
G1 X55.00 Y24.00 E0.2495
G1 X50.00 Y24.40 E0
G1 X55.00 Y24.40 E0.2495
G1 E-1 F2700
G1 Z0.80 F7200

G1 X20.00 Y25.00 F7200
G1 E0.9978 F2700
G1 X25.00 Y25.00 E0.9978 F1800
G1 X25.00 Y30.00 E0.9978
G1 X20.00 Y30.00 E0.9978
G1 X20.00 Y25.00 E0.9978
G1 X20.00 Y25.40 E0
G1 X25.00 Y25.40 E0.2495
G1 X20.00 Y25.80 E0
G1 X25.00 Y25.80 E0.2495
G1 X20.00 Y26.20 E0
G1 X25.00 Y26.20 E0.2495
G1 X20.00 Y26.60 E0
G1 X25.00 Y26.60 E0.2495
G1 X20.00 Y27.00 E0
G1 X25.00 Y27.00 E0.2495
G1 X20.00 Y27.40 E0
G1 X25.00 Y27.40 E0.2495
G1 X20.00 Y27.80 E0
G1 X25.00 Y27.80 E0.2495
G1 X20.00 Y28.20 E0
G1 X25.00 Y28.20 E0.2495
G1 X20.00 Y28.60 E0
G1 X25.00 Y28.60 E0.2495
G1 X20.00 Y29.00 E0
G1 X25.00 Y29.00 E0.2495
G1 X20.00 Y29.40 E0
G1 X25.00 Y29.40 E0.2495
G1 E-1 F2700
G1 Z0.80 F7200

G1 X50.00 Y25.00 F7200
G1 E0.9978 F2700
G1 X55.00 Y25.00 E0.9978 F1800
G1 X55.00 Y30.00 E0.9978
G1 X50.00 Y30.00 E0.9978
G1 X50.00 Y25.00 E0.9978
G1 X50.00 Y25.40 E0
G1 X55.00 Y25.40 E0.2495
G1 X50.00 Y25.80 E0
G1 X55.00 Y25.80 E0.2495
G1 X50.00 Y26.20 E0
G1 X55.00 Y26.20 E0.2495
G1 X50.00 Y26.60 E0
G1 X55.00 Y26.60 E0.2495
G1 X50.00 Y27.00 E0
G1 X55.00 Y27.00 E0.2495
G1 X50.00 Y27.40 E0
G1 X55.00 Y27.40 E0.2495
G1 X50.00 Y27.80 E0
G1 X55.00 Y27.80 E0.2495
G1 X50.00 Y28.20 E0
G1 X55.00 Y28.20 E0.2495
G1 X50.00 Y28.60 E0
G1 X55.00 Y28.60 E0.2495
G1 X50.00 Y29.00 E0
G1 X55.00 Y29.00 E0.2495
G1 X50.00 Y29.40 E0
G1 X55.00 Y29.40 E0.2495
G1 E-1 F2700
G1 Z0.80 F7200

G1 X20.00 Y30.00 F7200
G1 E0.9978 F2700
G1 X25.00 Y30.00 E0.9978 F1800
G1 X25.00 Y35.00 E0.9978
G1 X20.00 Y35.00 E0.9978
G1 X20.00 Y30.00 E0.9978
G1 X20.00 Y30.40 E0
G1 X25.00 Y30.40 E0.2495
G1 X20.00 Y30.80 E0
G1 X25.00 Y30.80 E0.2495
G1 X20.00 Y31.20 E0
G1 X25.00 Y31.20 E0.2495
G1 X20.00 Y31.60 E0
G1 X25.00 Y31.60 E0.2495
G1 X20.00 Y32.00 E0
G1 X25.00 Y32.00 E0.2495
G1 X20.00 Y32.40 E0
G1 X25.00 Y32.40 E0.2495
G1 X20.00 Y32.80 E0
G1 X25.00 Y32.80 E0.2495
G1 X20.00 Y33.20 E0
G1 X25.00 Y33.20 E0.2495
G1 X20.00 Y33.60 E0
G1 X25.00 Y33.60 E0.2495
G1 X20.00 Y34.00 E0
G1 X25.00 Y34.00 E0.2495
G1 X20.00 Y34.40 E0
G1 X25.00 Y34.40 E0.2495
G1 E-1 F2700
G1 Z0.80 F7200

G1 X50.00 Y30.00 F7200
G1 E0.9978 F2700
G1 X55.00 Y30.00 E0.9978 F1800
G1 X55.00 Y35.00 E0.9978
G1 X50.00 Y35.00 E0.9978
G1 X50.00 Y30.00 E0.9978
G1 X50.00 Y30.40 E0
G1 X55.00 Y30.40 E0.2495
G1 X50.00 Y30.80 E0
G1 X55.00 Y30.80 E0.2495
G1 X50.00 Y31.20 E0
G1 X55.00 Y31.20 E0.2495
G1 X50.00 Y31.60 E0
G1 X55.00 Y31.60 E0.2495
G1 X50.00 Y32.00 E0
G1 X55.00 Y32.00 E0.2495
G1 X50.00 Y32.40 E0
G1 X55.00 Y32.40 E0.2495
G1 X50.00 Y32.80 E0
G1 X55.00 Y32.80 E0.2495
G1 X50.00 Y33.20 E0
G1 X55.00 Y33.20 E0.2495
G1 X50.00 Y33.60 E0
G1 X55.00 Y33.60 E0.2495
G1 X50.00 Y34.00 E0
G1 X55.00 Y34.00 E0.2495
G1 X50.00 Y34.40 E0
G1 X55.00 Y34.40 E0.2495
G1 E-1 F2700
G1 Z0.80 F7200

G1 X20.00 Y35.00 F7200
G1 E0.9978 F2700
G1 X25.00 Y35.00 E0.9978 F1800
G1 X25.00 Y40.00 E0.9978
G1 X20.00 Y40.00 E0.9978
G1 X20.00 Y35.00 E0.9978
G1 X20.00 Y35.40 E0
G1 X25.00 Y35.40 E0.2495
G1 X20.00 Y35.80 E0
G1 X25.00 Y35.80 E0.2495
G1 X20.00 Y36.20 E0
G1 X25.00 Y36.20 E0.2495
G1 X20.00 Y36.60 E0
G1 X25.00 Y36.60 E0.2495
G1 X20.00 Y37.00 E0
G1 X25.00 Y37.00 E0.2495
G1 X20.00 Y37.40 E0
G1 X25.00 Y37.40 E0.2495
G1 X20.00 Y37.80 E0
G1 X25.00 Y37.80 E0.2495
G1 X20.00 Y38.20 E0
G1 X25.00 Y38.20 E0.2495
G1 X20.00 Y38.60 E0
G1 X25.00 Y38.60 E0.2495
G1 X20.00 Y39.00 E0
G1 X25.00 Y39.00 E0.2495
G1 X20.00 Y39.40 E0
G1 X25.00 Y39.40 E0.2495
G1 E-1 F2700
G1 Z0.80 F7200

G1 X25.00 Y35.00 F7200
G1 E0.9978 F2700
G1 X30.00 Y35.00 E0.9978 F1800
G1 X30.00 Y40.00 E0.9978
G1 X25.00 Y40.00 E0.9978
G1 X25.00 Y35.00 E0.9978
G1 X25.00 Y35.40 E0
G1 X30.00 Y35.40 E0.2495
G1 X25.00 Y35.80 E0
G1 X30.00 Y35.80 E0.2495
G1 X25.00 Y36.20 E0
G1 X30.00 Y36.20 E0.2495
G1 X25.00 Y36.60 E0
G1 X30.00 Y36.60 E0.2495
G1 X25.00 Y37.00 E0
G1 X30.00 Y37.00 E0.2495
G1 X25.00 Y37.40 E0
G1 X30.00 Y37.40 E0.2495
G1 X25.00 Y37.80 E0
G1 X30.00 Y37.80 E0.2495
G1 X25.00 Y38.20 E0
G1 X30.00 Y38.20 E0.2495
G1 X25.00 Y38.60 E0
G1 X30.00 Y38.60 E0.2495
G1 X25.00 Y39.00 E0
G1 X30.00 Y39.00 E0.2495
G1 X25.00 Y39.40 E0
G1 X30.00 Y39.40 E0.2495
G1 E-1 F2700
G1 Z0.80 F7200

G1 X30.00 Y35.00 F7200
G1 E0.9978 F2700
G1 X35.00 Y35.00 E0.9978 F1800
G1 X35.00 Y40.00 E0.9978
G1 X30.00 Y40.00 E0.9978
G1 X30.00 Y35.00 E0.9978
G1 X30.00 Y35.40 E0
G1 X35.00 Y35.40 E0.2495
G1 X30.00 Y35.80 E0
G1 X35.00 Y35.80 E0.2495
G1 X30.00 Y36.20 E0
G1 X35.00 Y36.20 E0.2495
G1 X30.00 Y36.60 E0
G1 X35.00 Y36.60 E0.2495
G1 X30.00 Y37.00 E0
G1 X35.00 Y37.00 E0.2495
G1 X30.00 Y37.40 E0
G1 X35.00 Y37.40 E0.2495
G1 X30.00 Y37.80 E0
G1 X35.00 Y37.80 E0.2495
G1 X30.00 Y38.20 E0
G1 X35.00 Y38.20 E0.2495
G1 X30.00 Y38.60 E0
G1 X35.00 Y38.60 E0.2495
G1 X30.00 Y39.00 E0
G1 X35.00 Y39.00 E0.2495
G1 X30.00 Y39.40 E0
G1 X35.00 Y39.40 E0.2495
G1 E-1 F2700
G1 Z0.80 F7200

G1 X35.00 Y35.00 F7200
G1 E0.9978 F2700
G1 X40.00 Y35.00 E0.9978 F1800
G1 X40.00 Y40.00 E0.9978
G1 X35.00 Y40.00 E0.9978
G1 X35.00 Y35.00 E0.9978
G1 X35.00 Y35.40 E0
G1 X40.00 Y35.40 E0.2495
G1 X35.00 Y35.80 E0
G1 X40.00 Y35.80 E0.2495
G1 X35.00 Y36.20 E0
G1 X40.00 Y36.20 E0.2495
G1 X35.00 Y36.60 E0
G1 X40.00 Y36.60 E0.2495
G1 X35.00 Y37.00 E0
G1 X40.00 Y37.00 E0.2495
G1 X35.00 Y37.40 E0
G1 X40.00 Y37.40 E0.2495
G1 X35.00 Y37.80 E0
G1 X40.00 Y37.80 E0.2495
G1 X35.00 Y38.20 E0
G1 X40.00 Y38.20 E0.2495
G1 X35.00 Y38.60 E0
G1 X40.00 Y38.60 E0.2495
G1 X35.00 Y39.00 E0
G1 X40.00 Y39.00 E0.2495
G1 X35.00 Y39.40 E0
G1 X40.00 Y39.40 E0.2495
G1 E-1 F2700
G1 Z0.80 F7200

G1 X40.00 Y35.00 F7200
G1 E0.9978 F2700
G1 X45.00 Y35.00 E0.9978 F1800
G1 X45.00 Y40.00 E0.9978
G1 X40.00 Y40.00 E0.9978
G1 X40.00 Y35.00 E0.9978
G1 X40.00 Y35.40 E0
G1 X45.00 Y35.40 E0.2495
G1 X40.00 Y35.80 E0
G1 X45.00 Y35.80 E0.2495
G1 X40.00 Y36.20 E0
G1 X45.00 Y36.20 E0.2495
G1 X40.00 Y36.60 E0
G1 X45.00 Y36.60 E0.2495
G1 X40.00 Y37.00 E0
G1 X45.00 Y37.00 E0.2495
G1 X40.00 Y37.40 E0
G1 X45.00 Y37.40 E0.2495
G1 X40.00 Y37.80 E0
G1 X45.00 Y37.80 E0.2495
G1 X40.00 Y38.20 E0
G1 X45.00 Y38.20 E0.2495
G1 X40.00 Y38.60 E0
G1 X45.00 Y38.60 E0.2495
G1 X40.00 Y39.00 E0
G1 X45.00 Y39.00 E0.2495
G1 X40.00 Y39.40 E0
G1 X45.00 Y39.40 E0.2495
G1 E-1 F2700
G1 Z0.80 F7200

G1 X45.00 Y35.00 F7200
G1 E0.9978 F2700
G1 X50.00 Y35.00 E0.9978 F1800
G1 X50.00 Y40.00 E0.9978
G1 X45.00 Y40.00 E0.9978
G1 X45.00 Y35.00 E0.9978
G1 X45.00 Y35.40 E0
G1 X50.00 Y35.40 E0.2495
G1 X45.00 Y35.80 E0
G1 X50.00 Y35.80 E0.2495
G1 X45.00 Y36.20 E0
G1 X50.00 Y36.20 E0.2495
G1 X45.00 Y36.60 E0
G1 X50.00 Y36.60 E0.2495
G1 X45.00 Y37.00 E0
G1 X50.00 Y37.00 E0.2495
G1 X45.00 Y37.40 E0
G1 X50.00 Y37.40 E0.2495
G1 X45.00 Y37.80 E0
G1 X50.00 Y37.80 E0.2495
G1 X45.00 Y38.20 E0
G1 X50.00 Y38.20 E0.2495
G1 X45.00 Y38.60 E0
G1 X50.00 Y38.60 E0.2495
G1 X45.00 Y39.00 E0
G1 X50.00 Y39.00 E0.2495
G1 X45.00 Y39.40 E0
G1 X50.00 Y39.40 E0.2495
G1 E-1 F2700
G1 Z0.80 F7200

G1 X50.00 Y35.00 F7200
G1 E0.9978 F2700
G1 X55.00 Y35.00 E0.9978 F1800
G1 X55.00 Y40.00 E0.9978
G1 X50.00 Y40.00 E0.9978
G1 X50.00 Y35.00 E0.9978
G1 X50.00 Y35.40 E0
G1 X55.00 Y35.40 E0.2495
G1 X50.00 Y35.80 E0
G1 X55.00 Y35.80 E0.2495
G1 X50.00 Y36.20 E0
G1 X55.00 Y36.20 E0.2495
G1 X50.00 Y36.60 E0
G1 X55.00 Y36.60 E0.2495
G1 X50.00 Y37.00 E0
G1 X55.00 Y37.00 E0.2495
G1 X50.00 Y37.40 E0
G1 X55.00 Y37.40 E0.2495
G1 X50.00 Y37.80 E0
G1 X55.00 Y37.80 E0.2495
G1 X50.00 Y38.20 E0
G1 X55.00 Y38.20 E0.2495
G1 X50.00 Y38.60 E0
G1 X55.00 Y38.60 E0.2495
G1 X50.00 Y39.00 E0
G1 X55.00 Y39.00 E0.2495
G1 X50.00 Y39.40 E0
G1 X55.00 Y39.40 E0.2495
G1 E-1 F2700
G1 Z0.80 F7200

G1 X20.00 Y40.00 F7200
G1 E0.9978 F2700
G1 X25.00 Y40.00 E0.9978 F1800
G1 X25.00 Y45.00 E0.9978
G1 X20.00 Y45.00 E0.9978
G1 X20.00 Y40.00 E0.9978
G1 X20.00 Y40.40 E0
G1 X25.00 Y40.40 E0.2495
G1 X20.00 Y40.80 E0
G1 X25.00 Y40.80 E0.2495
G1 X20.00 Y41.20 E0
G1 X25.00 Y41.20 E0.2495
G1 X20.00 Y41.60 E0
G1 X25.00 Y41.60 E0.2495
G1 X20.00 Y42.00 E0
G1 X25.00 Y42.00 E0.2495
G1 X20.00 Y42.40 E0
G1 X25.00 Y42.40 E0.2495
G1 X20.00 Y42.80 E0
G1 X25.00 Y42.80 E0.2495
G1 X20.00 Y43.20 E0
G1 X25.00 Y43.20 E0.2495
G1 X20.00 Y43.60 E0
G1 X25.00 Y43.60 E0.2495
G1 X20.00 Y44.00 E0
G1 X25.00 Y44.00 E0.2495
G1 X20.00 Y44.40 E0
G1 X25.00 Y44.40 E0.2495
G1 E-1 F2700
G1 Z0.80 F7200

G1 X50.00 Y40.00 F7200
G1 E0.9978 F2700
G1 X55.00 Y40.00 E0.9978 F1800
G1 X55.00 Y45.00 E0.9978
G1 X50.00 Y45.00 E0.9978
G1 X50.00 Y40.00 E0.9978
G1 X50.00 Y40.40 E0
G1 X55.00 Y40.40 E0.2495
G1 X50.00 Y40.80 E0
G1 X55.00 Y40.80 E0.2495
G1 X50.00 Y41.20 E0
G1 X55.00 Y41.20 E0.2495
G1 X50.00 Y41.60 E0
G1 X55.00 Y41.60 E0.2495
G1 X50.00 Y42.00 E0
G1 X55.00 Y42.00 E0.2495
G1 X50.00 Y42.40 E0
G1 X55.00 Y42.40 E0.2495
G1 X50.00 Y42.80 E0
G1 X55.00 Y42.80 E0.2495
G1 X50.00 Y43.20 E0
G1 X55.00 Y43.20 E0.2495
G1 X50.00 Y43.60 E0
G1 X55.00 Y43.60 E0.2495
G1 X50.00 Y44.00 E0
G1 X55.00 Y44.00 E0.2495
G1 X50.00 Y44.40 E0
G1 X55.00 Y44.40 E0.2495
G1 E-1 F2700
G1 Z0.80 F7200

G1 X20.00 Y45.00 F7200
G1 E0.9978 F2700
G1 X25.00 Y45.00 E0.9978 F1800
G1 X25.00 Y50.00 E0.9978
G1 X20.00 Y50.00 E0.9978
G1 X20.00 Y45.00 E0.9978
G1 X20.00 Y45.40 E0
G1 X25.00 Y45.40 E0.2495
G1 X20.00 Y45.80 E0
G1 X25.00 Y45.80 E0.2495
G1 X20.00 Y46.20 E0
G1 X25.00 Y46.20 E0.2495
G1 X20.00 Y46.60 E0
G1 X25.00 Y46.60 E0.2495
G1 X20.00 Y47.00 E0
G1 X25.00 Y47.00 E0.2495
G1 X20.00 Y47.40 E0
G1 X25.00 Y47.40 E0.2495
G1 X20.00 Y47.80 E0
G1 X25.00 Y47.80 E0.2495
G1 X20.00 Y48.20 E0
G1 X25.00 Y48.20 E0.2495
G1 X20.00 Y48.60 E0
G1 X25.00 Y48.60 E0.2495
G1 X20.00 Y49.00 E0
G1 X25.00 Y49.00 E0.2495
G1 X20.00 Y49.40 E0
G1 X25.00 Y49.40 E0.2495
G1 E-1 F2700
G1 Z0.80 F7200

G1 X50.00 Y45.00 F7200
G1 E0.9978 F2700
G1 X55.00 Y45.00 E0.9978 F1800
G1 X55.00 Y50.00 E0.9978
G1 X50.00 Y50.00 E0.9978
G1 X50.00 Y45.00 E0.9978
G1 X50.00 Y45.40 E0
G1 X55.00 Y45.40 E0.2495
G1 X50.00 Y45.80 E0
G1 X55.00 Y45.80 E0.2495
G1 X50.00 Y46.20 E0
G1 X55.00 Y46.20 E0.2495
G1 X50.00 Y46.60 E0
G1 X55.00 Y46.60 E0.2495
G1 X50.00 Y47.00 E0
G1 X55.00 Y47.00 E0.2495
G1 X50.00 Y47.40 E0
G1 X55.00 Y47.40 E0.2495
G1 X50.00 Y47.80 E0
G1 X55.00 Y47.80 E0.2495
G1 X50.00 Y48.20 E0
G1 X55.00 Y48.20 E0.2495
G1 X50.00 Y48.60 E0
G1 X55.00 Y48.60 E0.2495
G1 X50.00 Y49.00 E0
G1 X55.00 Y49.00 E0.2495
G1 X50.00 Y49.40 E0
G1 X55.00 Y49.40 E0.2495
G1 E-1 F2700
G1 Z0.80 F7200

G1 X20.00 Y50.00 F7200
G1 E0.9978 F2700
G1 X25.00 Y50.00 E0.9978 F1800
G1 X25.00 Y55.00 E0.9978
G1 X20.00 Y55.00 E0.9978
G1 X20.00 Y50.00 E0.9978
G1 X20.00 Y50.40 E0
G1 X25.00 Y50.40 E0.2495
G1 X20.00 Y50.80 E0
G1 X25.00 Y50.80 E0.2495
G1 X20.00 Y51.20 E0
G1 X25.00 Y51.20 E0.2495
G1 X20.00 Y51.60 E0
G1 X25.00 Y51.60 E0.2495
G1 X20.00 Y52.00 E0
G1 X25.00 Y52.00 E0.2495
G1 X20.00 Y52.40 E0
G1 X25.00 Y52.40 E0.2495
G1 X20.00 Y52.80 E0
G1 X25.00 Y52.80 E0.2495
G1 X20.00 Y53.20 E0
G1 X25.00 Y53.20 E0.2495
G1 X20.00 Y53.60 E0
G1 X25.00 Y53.60 E0.2495
G1 X20.00 Y54.00 E0
G1 X25.00 Y54.00 E0.2495
G1 X20.00 Y54.40 E0
G1 X25.00 Y54.40 E0.2495
G1 E-1 F2700
G1 Z0.80 F7200

G1 X50.00 Y50.00 F7200
G1 E0.9978 F2700
G1 X55.00 Y50.00 E0.9978 F1800
G1 X55.00 Y55.00 E0.9978
G1 X50.00 Y55.00 E0.9978
G1 X50.00 Y50.00 E0.9978
G1 X50.00 Y50.40 E0
G1 X55.00 Y50.40 E0.2495
G1 X50.00 Y50.80 E0
G1 X55.00 Y50.80 E0.2495
G1 X50.00 Y51.20 E0
G1 X55.00 Y51.20 E0.2495
G1 X50.00 Y51.60 E0
G1 X55.00 Y51.60 E0.2495
G1 X50.00 Y52.00 E0
G1 X55.00 Y52.00 E0.2495
G1 X50.00 Y52.40 E0
G1 X55.00 Y52.40 E0.2495
G1 X50.00 Y52.80 E0
G1 X55.00 Y52.80 E0.2495
G1 X50.00 Y53.20 E0
G1 X55.00 Y53.20 E0.2495
G1 X50.00 Y53.60 E0
G1 X55.00 Y53.60 E0.2495
G1 X50.00 Y54.00 E0
G1 X55.00 Y54.00 E0.2495
G1 X50.00 Y54.40 E0
G1 X55.00 Y54.40 E0.2495
G1 E-1 F2700
G1 Z0.80 F7200

G1 X60.00 Y20.00 F7200
G1 E0.9978 F2700
G1 X65.00 Y20.00 E0.9978 F1800
G1 X65.00 Y25.00 E0.9978
G1 X60.00 Y25.00 E0.9978
G1 X60.00 Y20.00 E0.9978
G1 X60.00 Y20.40 E0
G1 X65.00 Y20.40 E0.2495
G1 X60.00 Y20.80 E0
G1 X65.00 Y20.80 E0.2495
G1 X60.00 Y21.20 E0
G1 X65.00 Y21.20 E0.2495
G1 X60.00 Y21.60 E0
G1 X65.00 Y21.60 E0.2495
G1 X60.00 Y22.00 E0
G1 X65.00 Y22.00 E0.2495
G1 X60.00 Y22.40 E0
G1 X65.00 Y22.40 E0.2495
G1 X60.00 Y22.80 E0
G1 X65.00 Y22.80 E0.2495
G1 X60.00 Y23.20 E0
G1 X65.00 Y23.20 E0.2495
G1 X60.00 Y23.60 E0
G1 X65.00 Y23.60 E0.2495
G1 X60.00 Y24.00 E0
G1 X65.00 Y24.00 E0.2495
G1 X60.00 Y24.40 E0
G1 X65.00 Y24.40 E0.2495
G1 E-1 F2700
G1 Z0.80 F7200

G1 X65.00 Y20.00 F7200
G1 E0.9978 F2700
G1 X70.00 Y20.00 E0.9978 F1800
G1 X70.00 Y25.00 E0.9978
G1 X65.00 Y25.00 E0.9978
G1 X65.00 Y20.00 E0.9978
G1 X65.00 Y20.40 E0
G1 X70.00 Y20.40 E0.2495
G1 X65.00 Y20.80 E0
G1 X70.00 Y20.80 E0.2495
G1 X65.00 Y21.20 E0
G1 X70.00 Y21.20 E0.2495
G1 X65.00 Y21.60 E0
G1 X70.00 Y21.60 E0.2495
G1 X65.00 Y22.00 E0
G1 X70.00 Y22.00 E0.2495
G1 X65.00 Y22.40 E0
G1 X70.00 Y22.40 E0.2495
G1 X65.00 Y22.80 E0
G1 X70.00 Y22.80 E0.2495
G1 X65.00 Y23.20 E0
G1 X70.00 Y23.20 E0.2495
G1 X65.00 Y23.60 E0
G1 X70.00 Y23.60 E0.2495
G1 X65.00 Y24.00 E0
G1 X70.00 Y24.00 E0.2495
G1 X65.00 Y24.40 E0
G1 X70.00 Y24.40 E0.2495
G1 E-1 F2700
G1 Z0.80 F7200

G1 X70.00 Y20.00 F7200
G1 E0.9978 F2700
G1 X75.00 Y20.00 E0.9978 F1800
G1 X75.00 Y25.00 E0.9978
G1 X70.00 Y25.00 E0.9978
G1 X70.00 Y20.00 E0.9978
G1 X70.00 Y20.40 E0
G1 X75.00 Y20.40 E0.2495
G1 X70.00 Y20.80 E0
G1 X75.00 Y20.80 E0.2495
G1 X70.00 Y21.20 E0
G1 X75.00 Y21.20 E0.2495
G1 X70.00 Y21.60 E0
G1 X75.00 Y21.60 E0.2495
G1 X70.00 Y22.00 E0
G1 X75.00 Y22.00 E0.2495
G1 X70.00 Y22.40 E0
G1 X75.00 Y22.40 E0.2495
G1 X70.00 Y22.80 E0
G1 X75.00 Y22.80 E0.2495
G1 X70.00 Y23.20 E0
G1 X75.00 Y23.20 E0.2495
G1 X70.00 Y23.60 E0
G1 X75.00 Y23.60 E0.2495
G1 X70.00 Y24.00 E0
G1 X75.00 Y24.00 E0.2495
G1 X70.00 Y24.40 E0
G1 X75.00 Y24.40 E0.2495
G1 E-1 F2700
G1 Z0.80 F7200

G1 X75.00 Y20.00 F7200
G1 E0.9978 F2700
G1 X80.00 Y20.00 E0.9978 F1800
G1 X80.00 Y25.00 E0.9978
G1 X75.00 Y25.00 E0.9978
G1 X75.00 Y20.00 E0.9978
G1 X75.00 Y20.40 E0
G1 X80.00 Y20.40 E0.2495
G1 X75.00 Y20.80 E0
G1 X80.00 Y20.80 E0.2495
G1 X75.00 Y21.20 E0
G1 X80.00 Y21.20 E0.2495
G1 X75.00 Y21.60 E0
G1 X80.00 Y21.60 E0.2495
G1 X75.00 Y22.00 E0
G1 X80.00 Y22.00 E0.2495
G1 X75.00 Y22.40 E0
G1 X80.00 Y22.40 E0.2495
G1 X75.00 Y22.80 E0
G1 X80.00 Y22.80 E0.2495
G1 X75.00 Y23.20 E0
G1 X80.00 Y23.20 E0.2495
G1 X75.00 Y23.60 E0
G1 X80.00 Y23.60 E0.2495
G1 X75.00 Y24.00 E0
G1 X80.00 Y24.00 E0.2495
G1 X75.00 Y24.40 E0
G1 X80.00 Y24.40 E0.2495
G1 E-1 F2700
G1 Z0.80 F7200

G1 X80.00 Y20.00 F7200
G1 E0.9978 F2700
G1 X85.00 Y20.00 E0.9978 F1800
G1 X85.00 Y25.00 E0.9978
G1 X80.00 Y25.00 E0.9978
G1 X80.00 Y20.00 E0.9978
G1 X80.00 Y20.40 E0
G1 X85.00 Y20.40 E0.2495
G1 X80.00 Y20.80 E0
G1 X85.00 Y20.80 E0.2495
G1 X80.00 Y21.20 E0
G1 X85.00 Y21.20 E0.2495
G1 X80.00 Y21.60 E0
G1 X85.00 Y21.60 E0.2495
G1 X80.00 Y22.00 E0
G1 X85.00 Y22.00 E0.2495
G1 X80.00 Y22.40 E0
G1 X85.00 Y22.40 E0.2495
G1 X80.00 Y22.80 E0
G1 X85.00 Y22.80 E0.2495
G1 X80.00 Y23.20 E0
G1 X85.00 Y23.20 E0.2495
G1 X80.00 Y23.60 E0
G1 X85.00 Y23.60 E0.2495
G1 X80.00 Y24.00 E0
G1 X85.00 Y24.00 E0.2495
G1 X80.00 Y24.40 E0
G1 X85.00 Y24.40 E0.2495
G1 E-1 F2700
G1 Z0.80 F7200

G1 X85.00 Y20.00 F7200
G1 E0.9978 F2700
G1 X90.00 Y20.00 E0.9978 F1800
G1 X90.00 Y25.00 E0.9978
G1 X85.00 Y25.00 E0.9978
G1 X85.00 Y20.00 E0.9978
G1 X85.00 Y20.40 E0
G1 X90.00 Y20.40 E0.2495
G1 X85.00 Y20.80 E0
G1 X90.00 Y20.80 E0.2495
G1 X85.00 Y21.20 E0
G1 X90.00 Y21.20 E0.2495
G1 X85.00 Y21.60 E0
G1 X90.00 Y21.60 E0.2495
G1 X85.00 Y22.00 E0
G1 X90.00 Y22.00 E0.2495
G1 X85.00 Y22.40 E0
G1 X90.00 Y22.40 E0.2495
G1 X85.00 Y22.80 E0
G1 X90.00 Y22.80 E0.2495
G1 X85.00 Y23.20 E0
G1 X90.00 Y23.20 E0.2495
G1 X85.00 Y23.60 E0
G1 X90.00 Y23.60 E0.2495
G1 X85.00 Y24.00 E0
G1 X90.00 Y24.00 E0.2495
G1 X85.00 Y24.40 E0
G1 X90.00 Y24.40 E0.2495
G1 E-1 F2700
G1 Z0.80 F7200

G1 X90.00 Y20.00 F7200
G1 E0.9978 F2700
G1 X95.00 Y20.00 E0.9978 F1800
G1 X95.00 Y25.00 E0.9978
G1 X90.00 Y25.00 E0.9978
G1 X90.00 Y20.00 E0.9978
G1 X90.00 Y20.40 E0
G1 X95.00 Y20.40 E0.2495
G1 X90.00 Y20.80 E0
G1 X95.00 Y20.80 E0.2495
G1 X90.00 Y21.20 E0
G1 X95.00 Y21.20 E0.2495
G1 X90.00 Y21.60 E0
G1 X95.00 Y21.60 E0.2495
G1 X90.00 Y22.00 E0
G1 X95.00 Y22.00 E0.2495
G1 X90.00 Y22.40 E0
G1 X95.00 Y22.40 E0.2495
G1 X90.00 Y22.80 E0
G1 X95.00 Y22.80 E0.2495
G1 X90.00 Y23.20 E0
G1 X95.00 Y23.20 E0.2495
G1 X90.00 Y23.60 E0
G1 X95.00 Y23.60 E0.2495
G1 X90.00 Y24.00 E0
G1 X95.00 Y24.00 E0.2495
G1 X90.00 Y24.40 E0
G1 X95.00 Y24.40 E0.2495
G1 E-1 F2700
G1 Z0.80 F7200

G1 X60.00 Y25.00 F7200
G1 E0.9978 F2700
G1 X65.00 Y25.00 E0.9978 F1800
G1 X65.00 Y30.00 E0.9978
G1 X60.00 Y30.00 E0.9978
G1 X60.00 Y25.00 E0.9978
G1 X60.00 Y25.40 E0
G1 X65.00 Y25.40 E0.2495
G1 X60.00 Y25.80 E0
G1 X65.00 Y25.80 E0.2495
G1 X60.00 Y26.20 E0
G1 X65.00 Y26.20 E0.2495
G1 X60.00 Y26.60 E0
G1 X65.00 Y26.60 E0.2495
G1 X60.00 Y27.00 E0
G1 X65.00 Y27.00 E0.2495
G1 X60.00 Y27.40 E0
G1 X65.00 Y27.40 E0.2495
G1 X60.00 Y27.80 E0
G1 X65.00 Y27.80 E0.2495
G1 X60.00 Y28.20 E0
G1 X65.00 Y28.20 E0.2495
G1 X60.00 Y28.60 E0
G1 X65.00 Y28.60 E0.2495
G1 X60.00 Y29.00 E0
G1 X65.00 Y29.00 E0.2495
G1 X60.00 Y29.40 E0
G1 X65.00 Y29.40 E0.2495
G1 E-1 F2700
G1 Z0.80 F7200

G1 X60.00 Y30.00 F7200
G1 E0.9978 F2700
G1 X65.00 Y30.00 E0.9978 F1800
G1 X65.00 Y35.00 E0.9978
G1 X60.00 Y35.00 E0.9978
G1 X60.00 Y30.00 E0.9978
G1 X60.00 Y30.40 E0
G1 X65.00 Y30.40 E0.2495
G1 X60.00 Y30.80 E0
G1 X65.00 Y30.80 E0.2495
G1 X60.00 Y31.20 E0
G1 X65.00 Y31.20 E0.2495
G1 X60.00 Y31.60 E0
G1 X65.00 Y31.60 E0.2495
G1 X60.00 Y32.00 E0
G1 X65.00 Y32.00 E0.2495
G1 X60.00 Y32.40 E0
G1 X65.00 Y32.40 E0.2495
G1 X60.00 Y32.80 E0
G1 X65.00 Y32.80 E0.2495
G1 X60.00 Y33.20 E0
G1 X65.00 Y33.20 E0.2495
G1 X60.00 Y33.60 E0
G1 X65.00 Y33.60 E0.2495
G1 X60.00 Y34.00 E0
G1 X65.00 Y34.00 E0.2495
G1 X60.00 Y34.40 E0
G1 X65.00 Y34.40 E0.2495
G1 E-1 F2700
G1 Z0.80 F7200

G1 X60.00 Y35.00 F7200
G1 E0.9978 F2700
G1 X65.00 Y35.00 E0.9978 F1800
G1 X65.00 Y40.00 E0.9978
G1 X60.00 Y40.00 E0.9978
G1 X60.00 Y35.00 E0.9978
G1 X60.00 Y35.40 E0
G1 X65.00 Y35.40 E0.2495
G1 X60.00 Y35.80 E0
G1 X65.00 Y35.80 E0.2495
G1 X60.00 Y36.20 E0
G1 X65.00 Y36.20 E0.2495
G1 X60.00 Y36.60 E0
G1 X65.00 Y36.60 E0.2495
G1 X60.00 Y37.00 E0
G1 X65.00 Y37.00 E0.2495
G1 X60.00 Y37.40 E0
G1 X65.00 Y37.40 E0.2495
G1 X60.00 Y37.80 E0
G1 X65.00 Y37.80 E0.2495
G1 X60.00 Y38.20 E0
G1 X65.00 Y38.20 E0.2495
G1 X60.00 Y38.60 E0
G1 X65.00 Y38.60 E0.2495
G1 X60.00 Y39.00 E0
G1 X65.00 Y39.00 E0.2495
G1 X60.00 Y39.40 E0
G1 X65.00 Y39.40 E0.2495
G1 E-1 F2700
G1 Z0.80 F7200

G1 X65.00 Y35.00 F7200
G1 E0.9978 F2700
G1 X70.00 Y35.00 E0.9978 F1800
G1 X70.00 Y40.00 E0.9978
G1 X65.00 Y40.00 E0.9978
G1 X65.00 Y35.00 E0.9978
G1 X65.00 Y35.40 E0
G1 X70.00 Y35.40 E0.2495
G1 X65.00 Y35.80 E0
G1 X70.00 Y35.80 E0.2495
G1 X65.00 Y36.20 E0
G1 X70.00 Y36.20 E0.2495
G1 X65.00 Y36.60 E0
G1 X70.00 Y36.60 E0.2495
G1 X65.00 Y37.00 E0
G1 X70.00 Y37.00 E0.2495
G1 X65.00 Y37.40 E0
G1 X70.00 Y37.40 E0.2495
G1 X65.00 Y37.80 E0
G1 X70.00 Y37.80 E0.2495
G1 X65.00 Y38.20 E0
G1 X70.00 Y38.20 E0.2495
G1 X65.00 Y38.60 E0
G1 X70.00 Y38.60 E0.2495
G1 X65.00 Y39.00 E0
G1 X70.00 Y39.00 E0.2495
G1 X65.00 Y39.40 E0
G1 X70.00 Y39.40 E0.2495
G1 E-1 F2700
G1 Z0.80 F7200

G1 X70.00 Y35.00 F7200
G1 E0.9978 F2700
G1 X75.00 Y35.00 E0.9978 F1800
G1 X75.00 Y40.00 E0.9978
G1 X70.00 Y40.00 E0.9978
G1 X70.00 Y35.00 E0.9978
G1 X70.00 Y35.40 E0
G1 X75.00 Y35.40 E0.2495
G1 X70.00 Y35.80 E0
G1 X75.00 Y35.80 E0.2495
G1 X70.00 Y36.20 E0
G1 X75.00 Y36.20 E0.2495
G1 X70.00 Y36.60 E0
G1 X75.00 Y36.60 E0.2495
G1 X70.00 Y37.00 E0
G1 X75.00 Y37.00 E0.2495
G1 X70.00 Y37.40 E0
G1 X75.00 Y37.40 E0.2495
G1 X70.00 Y37.80 E0
G1 X75.00 Y37.80 E0.2495
G1 X70.00 Y38.20 E0
G1 X75.00 Y38.20 E0.2495
G1 X70.00 Y38.60 E0
G1 X75.00 Y38.60 E0.2495
G1 X70.00 Y39.00 E0
G1 X75.00 Y39.00 E0.2495
G1 X70.00 Y39.40 E0
G1 X75.00 Y39.40 E0.2495
G1 E-1 F2700
G1 Z0.80 F7200

G1 X75.00 Y35.00 F7200
G1 E0.9978 F2700
G1 X80.00 Y35.00 E0.9978 F1800
G1 X80.00 Y40.00 E0.9978
G1 X75.00 Y40.00 E0.9978
G1 X75.00 Y35.00 E0.9978
G1 X75.00 Y35.40 E0
G1 X80.00 Y35.40 E0.2495
G1 X75.00 Y35.80 E0
G1 X80.00 Y35.80 E0.2495
G1 X75.00 Y36.20 E0
G1 X80.00 Y36.20 E0.2495
G1 X75.00 Y36.60 E0
G1 X80.00 Y36.60 E0.2495
G1 X75.00 Y37.00 E0
G1 X80.00 Y37.00 E0.2495
G1 X75.00 Y37.40 E0
G1 X80.00 Y37.40 E0.2495
G1 X75.00 Y37.80 E0
G1 X80.00 Y37.80 E0.2495
G1 X75.00 Y38.20 E0
G1 X80.00 Y38.20 E0.2495
G1 X75.00 Y38.60 E0
G1 X80.00 Y38.60 E0.2495
G1 X75.00 Y39.00 E0
G1 X80.00 Y39.00 E0.2495
G1 X75.00 Y39.40 E0
G1 X80.00 Y39.40 E0.2495
G1 E-1 F2700
G1 Z0.80 F7200

G1 X80.00 Y35.00 F7200
G1 E0.9978 F2700
G1 X85.00 Y35.00 E0.9978 F1800
G1 X85.00 Y40.00 E0.9978
G1 X80.00 Y40.00 E0.9978
G1 X80.00 Y35.00 E0.9978
G1 X80.00 Y35.40 E0
G1 X85.00 Y35.40 E0.2495
G1 X80.00 Y35.80 E0
G1 X85.00 Y35.80 E0.2495
G1 X80.00 Y36.20 E0
G1 X85.00 Y36.20 E0.2495
G1 X80.00 Y36.60 E0
G1 X85.00 Y36.60 E0.2495
G1 X80.00 Y37.00 E0
G1 X85.00 Y37.00 E0.2495
G1 X80.00 Y37.40 E0
G1 X85.00 Y37.40 E0.2495
G1 X80.00 Y37.80 E0
G1 X85.00 Y37.80 E0.2495
G1 X80.00 Y38.20 E0
G1 X85.00 Y38.20 E0.2495
G1 X80.00 Y38.60 E0
G1 X85.00 Y38.60 E0.2495
G1 X80.00 Y39.00 E0
G1 X85.00 Y39.00 E0.2495
G1 X80.00 Y39.40 E0
G1 X85.00 Y39.40 E0.2495
G1 E-1 F2700
G1 Z0.80 F7200

G1 X85.00 Y35.00 F7200
G1 E0.9978 F2700
G1 X90.00 Y35.00 E0.9978 F1800
G1 X90.00 Y40.00 E0.9978
G1 X85.00 Y40.00 E0.9978
G1 X85.00 Y35.00 E0.9978
G1 X85.00 Y35.40 E0
G1 X90.00 Y35.40 E0.2495
G1 X85.00 Y35.80 E0
G1 X90.00 Y35.80 E0.2495
G1 X85.00 Y36.20 E0
G1 X90.00 Y36.20 E0.2495
G1 X85.00 Y36.60 E0
G1 X90.00 Y36.60 E0.2495
G1 X85.00 Y37.00 E0
G1 X90.00 Y37.00 E0.2495
G1 X85.00 Y37.40 E0
G1 X90.00 Y37.40 E0.2495
G1 X85.00 Y37.80 E0
G1 X90.00 Y37.80 E0.2495
G1 X85.00 Y38.20 E0
G1 X90.00 Y38.20 E0.2495
G1 X85.00 Y38.60 E0
G1 X90.00 Y38.60 E0.2495
G1 X85.00 Y39.00 E0
G1 X90.00 Y39.00 E0.2495
G1 X85.00 Y39.40 E0
G1 X90.00 Y39.40 E0.2495
G1 E-1 F2700
G1 Z0.80 F7200

G1 X60.00 Y40.00 F7200
G1 E0.9978 F2700
G1 X65.00 Y40.00 E0.9978 F1800
G1 X65.00 Y45.00 E0.9978
G1 X60.00 Y45.00 E0.9978
G1 X60.00 Y40.00 E0.9978
G1 X60.00 Y40.40 E0
G1 X65.00 Y40.40 E0.2495
G1 X60.00 Y40.80 E0
G1 X65.00 Y40.80 E0.2495
G1 X60.00 Y41.20 E0
G1 X65.00 Y41.20 E0.2495
G1 X60.00 Y41.60 E0
G1 X65.00 Y41.60 E0.2495
G1 X60.00 Y42.00 E0
G1 X65.00 Y42.00 E0.2495
G1 X60.00 Y42.40 E0
G1 X65.00 Y42.40 E0.2495
G1 X60.00 Y42.80 E0
G1 X65.00 Y42.80 E0.2495
G1 X60.00 Y43.20 E0
G1 X65.00 Y43.20 E0.2495
G1 X60.00 Y43.60 E0
G1 X65.00 Y43.60 E0.2495
G1 X60.00 Y44.00 E0
G1 X65.00 Y44.00 E0.2495
G1 X60.00 Y44.40 E0
G1 X65.00 Y44.40 E0.2495
G1 E-1 F2700
G1 Z0.80 F7200

G1 X60.00 Y45.00 F7200
G1 E0.9978 F2700
G1 X65.00 Y45.00 E0.9978 F1800
G1 X65.00 Y50.00 E0.9978
G1 X60.00 Y50.00 E0.9978
G1 X60.00 Y45.00 E0.9978
G1 X60.00 Y45.40 E0
G1 X65.00 Y45.40 E0.2495
G1 X60.00 Y45.80 E0
G1 X65.00 Y45.80 E0.2495
G1 X60.00 Y46.20 E0
G1 X65.00 Y46.20 E0.2495
G1 X60.00 Y46.60 E0
G1 X65.00 Y46.60 E0.2495
G1 X60.00 Y47.00 E0
G1 X65.00 Y47.00 E0.2495
G1 X60.00 Y47.40 E0
G1 X65.00 Y47.40 E0.2495
G1 X60.00 Y47.80 E0
G1 X65.00 Y47.80 E0.2495
G1 X60.00 Y48.20 E0
G1 X65.00 Y48.20 E0.2495
G1 X60.00 Y48.60 E0
G1 X65.00 Y48.60 E0.2495
G1 X60.00 Y49.00 E0
G1 X65.00 Y49.00 E0.2495
G1 X60.00 Y49.40 E0
G1 X65.00 Y49.40 E0.2495
G1 E-1 F2700
G1 Z0.80 F7200

G1 X60.00 Y50.00 F7200
G1 E0.9978 F2700
G1 X65.00 Y50.00 E0.9978 F1800
G1 X65.00 Y55.00 E0.9978
G1 X60.00 Y55.00 E0.9978
G1 X60.00 Y50.00 E0.9978
G1 X60.00 Y50.40 E0
G1 X65.00 Y50.40 E0.2495
G1 X60.00 Y50.80 E0
G1 X65.00 Y50.80 E0.2495
G1 X60.00 Y51.20 E0
G1 X65.00 Y51.20 E0.2495
G1 X60.00 Y51.60 E0
G1 X65.00 Y51.60 E0.2495
G1 X60.00 Y52.00 E0
G1 X65.00 Y52.00 E0.2495
G1 X60.00 Y52.40 E0
G1 X65.00 Y52.40 E0.2495
G1 X60.00 Y52.80 E0
G1 X65.00 Y52.80 E0.2495
G1 X60.00 Y53.20 E0
G1 X65.00 Y53.20 E0.2495
G1 X60.00 Y53.60 E0
G1 X65.00 Y53.60 E0.2495
G1 X60.00 Y54.00 E0
G1 X65.00 Y54.00 E0.2495
G1 X60.00 Y54.40 E0
G1 X65.00 Y54.40 E0.2495
G1 E-1 F2700
G1 Z0.80 F7200

G1 X65.00 Y50.00 F7200
G1 E0.9978 F2700
G1 X70.00 Y50.00 E0.9978 F1800
G1 X70.00 Y55.00 E0.9978
G1 X65.00 Y55.00 E0.9978
G1 X65.00 Y50.00 E0.9978
G1 X65.00 Y50.40 E0
G1 X70.00 Y50.40 E0.2495
G1 X65.00 Y50.80 E0
G1 X70.00 Y50.80 E0.2495
G1 X65.00 Y51.20 E0
G1 X70.00 Y51.20 E0.2495
G1 X65.00 Y51.60 E0
G1 X70.00 Y51.60 E0.2495
G1 X65.00 Y52.00 E0
G1 X70.00 Y52.00 E0.2495
G1 X65.00 Y52.40 E0
G1 X70.00 Y52.40 E0.2495
G1 X65.00 Y52.80 E0
G1 X70.00 Y52.80 E0.2495
G1 X65.00 Y53.20 E0
G1 X70.00 Y53.20 E0.2495
G1 X65.00 Y53.60 E0
G1 X70.00 Y53.60 E0.2495
G1 X65.00 Y54.00 E0
G1 X70.00 Y54.00 E0.2495
G1 X65.00 Y54.40 E0
G1 X70.00 Y54.40 E0.2495
G1 E-1 F2700
G1 Z0.80 F7200

G1 X70.00 Y50.00 F7200
G1 E0.9978 F2700
G1 X75.00 Y50.00 E0.9978 F1800
G1 X75.00 Y55.00 E0.9978
G1 X70.00 Y55.00 E0.9978
G1 X70.00 Y50.00 E0.9978
G1 X70.00 Y50.40 E0
G1 X75.00 Y50.40 E0.2495
G1 X70.00 Y50.80 E0
G1 X75.00 Y50.80 E0.2495
G1 X70.00 Y51.20 E0
G1 X75.00 Y51.20 E0.2495
G1 X70.00 Y51.60 E0
G1 X75.00 Y51.60 E0.2495
G1 X70.00 Y52.00 E0
G1 X75.00 Y52.00 E0.2495
G1 X70.00 Y52.40 E0
G1 X75.00 Y52.40 E0.2495
G1 X70.00 Y52.80 E0
G1 X75.00 Y52.80 E0.2495
G1 X70.00 Y53.20 E0
G1 X75.00 Y53.20 E0.2495
G1 X70.00 Y53.60 E0
G1 X75.00 Y53.60 E0.2495
G1 X70.00 Y54.00 E0
G1 X75.00 Y54.00 E0.2495
G1 X70.00 Y54.40 E0
G1 X75.00 Y54.40 E0.2495
G1 E-1 F2700
G1 Z0.80 F7200

G1 X75.00 Y50.00 F7200
G1 E0.9978 F2700
G1 X80.00 Y50.00 E0.9978 F1800
G1 X80.00 Y55.00 E0.9978
G1 X75.00 Y55.00 E0.9978
G1 X75.00 Y50.00 E0.9978
G1 X75.00 Y50.40 E0
G1 X80.00 Y50.40 E0.2495
G1 X75.00 Y50.80 E0
G1 X80.00 Y50.80 E0.2495
G1 X75.00 Y51.20 E0
G1 X80.00 Y51.20 E0.2495
G1 X75.00 Y51.60 E0
G1 X80.00 Y51.60 E0.2495
G1 X75.00 Y52.00 E0
G1 X80.00 Y52.00 E0.2495
G1 X75.00 Y52.40 E0
G1 X80.00 Y52.40 E0.2495
G1 X75.00 Y52.80 E0
G1 X80.00 Y52.80 E0.2495
G1 X75.00 Y53.20 E0
G1 X80.00 Y53.20 E0.2495
G1 X75.00 Y53.60 E0
G1 X80.00 Y53.60 E0.2495
G1 X75.00 Y54.00 E0
G1 X80.00 Y54.00 E0.2495
G1 X75.00 Y54.40 E0
G1 X80.00 Y54.40 E0.2495
G1 E-1 F2700
G1 Z0.80 F7200

G1 X80.00 Y50.00 F7200
G1 E0.9978 F2700
G1 X85.00 Y50.00 E0.9978 F1800
G1 X85.00 Y55.00 E0.9978
G1 X80.00 Y55.00 E0.9978
G1 X80.00 Y50.00 E0.9978
G1 X80.00 Y50.40 E0
G1 X85.00 Y50.40 E0.2495
G1 X80.00 Y50.80 E0
G1 X85.00 Y50.80 E0.2495
G1 X80.00 Y51.20 E0
G1 X85.00 Y51.20 E0.2495
G1 X80.00 Y51.60 E0
G1 X85.00 Y51.60 E0.2495
G1 X80.00 Y52.00 E0
G1 X85.00 Y52.00 E0.2495
G1 X80.00 Y52.40 E0
G1 X85.00 Y52.40 E0.2495
G1 X80.00 Y52.80 E0
G1 X85.00 Y52.80 E0.2495
G1 X80.00 Y53.20 E0
G1 X85.00 Y53.20 E0.2495
G1 X80.00 Y53.60 E0
G1 X85.00 Y53.60 E0.2495
G1 X80.00 Y54.00 E0
G1 X85.00 Y54.00 E0.2495
G1 X80.00 Y54.40 E0
G1 X85.00 Y54.40 E0.2495
G1 E-1 F2700
G1 Z0.80 F7200

G1 X85.00 Y50.00 F7200
G1 E0.9978 F2700
G1 X90.00 Y50.00 E0.9978 F1800
G1 X90.00 Y55.00 E0.9978
G1 X85.00 Y55.00 E0.9978
G1 X85.00 Y50.00 E0.9978
G1 X85.00 Y50.40 E0
G1 X90.00 Y50.40 E0.2495
G1 X85.00 Y50.80 E0
G1 X90.00 Y50.80 E0.2495
G1 X85.00 Y51.20 E0
G1 X90.00 Y51.20 E0.2495
G1 X85.00 Y51.60 E0
G1 X90.00 Y51.60 E0.2495
G1 X85.00 Y52.00 E0
G1 X90.00 Y52.00 E0.2495
G1 X85.00 Y52.40 E0
G1 X90.00 Y52.40 E0.2495
G1 X85.00 Y52.80 E0
G1 X90.00 Y52.80 E0.2495
G1 X85.00 Y53.20 E0
G1 X90.00 Y53.20 E0.2495
G1 X85.00 Y53.60 E0
G1 X90.00 Y53.60 E0.2495
G1 X85.00 Y54.00 E0
G1 X90.00 Y54.00 E0.2495
G1 X85.00 Y54.40 E0
G1 X90.00 Y54.40 E0.2495
G1 E-1 F2700
G1 Z0.80 F7200

G1 X90.00 Y50.00 F7200
G1 E0.9978 F2700
G1 X95.00 Y50.00 E0.9978 F1800
G1 X95.00 Y55.00 E0.9978
G1 X90.00 Y55.00 E0.9978
G1 X90.00 Y50.00 E0.9978
G1 X90.00 Y50.40 E0
G1 X95.00 Y50.40 E0.2495
G1 X90.00 Y50.80 E0
G1 X95.00 Y50.80 E0.2495
G1 X90.00 Y51.20 E0
G1 X95.00 Y51.20 E0.2495
G1 X90.00 Y51.60 E0
G1 X95.00 Y51.60 E0.2495
G1 X90.00 Y52.00 E0
G1 X95.00 Y52.00 E0.2495
G1 X90.00 Y52.40 E0
G1 X95.00 Y52.40 E0.2495
G1 X90.00 Y52.80 E0
G1 X95.00 Y52.80 E0.2495
G1 X90.00 Y53.20 E0
G1 X95.00 Y53.20 E0.2495
G1 X90.00 Y53.60 E0
G1 X95.00 Y53.60 E0.2495
G1 X90.00 Y54.00 E0
G1 X95.00 Y54.00 E0.2495
G1 X90.00 Y54.40 E0
G1 X95.00 Y54.40 E0.2495
G1 E-1 F2700
G1 Z0.80 F7200

G1 X100.00 Y20.00 F7200
G1 E0.9978 F2700
G1 X105.00 Y20.00 E0.9978 F1800
G1 X105.00 Y25.00 E0.9978
G1 X100.00 Y25.00 E0.9978
G1 X100.00 Y20.00 E0.9978
G1 X100.00 Y20.40 E0
G1 X105.00 Y20.40 E0.2495
G1 X100.00 Y20.80 E0
G1 X105.00 Y20.80 E0.2495
G1 X100.00 Y21.20 E0
G1 X105.00 Y21.20 E0.2495
G1 X100.00 Y21.60 E0
G1 X105.00 Y21.60 E0.2495
G1 X100.00 Y22.00 E0
G1 X105.00 Y22.00 E0.2495
G1 X100.00 Y22.40 E0
G1 X105.00 Y22.40 E0.2495
G1 X100.00 Y22.80 E0
G1 X105.00 Y22.80 E0.2495
G1 X100.00 Y23.20 E0
G1 X105.00 Y23.20 E0.2495
G1 X100.00 Y23.60 E0
G1 X105.00 Y23.60 E0.2495
G1 X100.00 Y24.00 E0
G1 X105.00 Y24.00 E0.2495
G1 X100.00 Y24.40 E0
G1 X105.00 Y24.40 E0.2495
G1 E-1 F2700
G1 Z0.80 F7200

G1 X100.00 Y25.00 F7200
G1 E0.9978 F2700
G1 X105.00 Y25.00 E0.9978 F1800
G1 X105.00 Y30.00 E0.9978
G1 X100.00 Y30.00 E0.9978
G1 X100.00 Y25.00 E0.9978
G1 X100.00 Y25.40 E0
G1 X105.00 Y25.40 E0.2495
G1 X100.00 Y25.80 E0
G1 X105.00 Y25.80 E0.2495
G1 X100.00 Y26.20 E0
G1 X105.00 Y26.20 E0.2495
G1 X100.00 Y26.60 E0
G1 X105.00 Y26.60 E0.2495
G1 X100.00 Y27.00 E0
G1 X105.00 Y27.00 E0.2495
G1 X100.00 Y27.40 E0
G1 X105.00 Y27.40 E0.2495
G1 X100.00 Y27.80 E0
G1 X105.00 Y27.80 E0.2495
G1 X100.00 Y28.20 E0
G1 X105.00 Y28.20 E0.2495
G1 X100.00 Y28.60 E0
G1 X105.00 Y28.60 E0.2495
G1 X100.00 Y29.00 E0
G1 X105.00 Y29.00 E0.2495
G1 X100.00 Y29.40 E0
G1 X105.00 Y29.40 E0.2495
G1 E-1 F2700
G1 Z0.80 F7200

G1 X100.00 Y30.00 F7200
G1 E0.9978 F2700
G1 X105.00 Y30.00 E0.9978 F1800
G1 X105.00 Y35.00 E0.9978
G1 X100.00 Y35.00 E0.9978
G1 X100.00 Y30.00 E0.9978
G1 X100.00 Y30.40 E0
G1 X105.00 Y30.40 E0.2495
G1 X100.00 Y30.80 E0
G1 X105.00 Y30.80 E0.2495
G1 X100.00 Y31.20 E0
G1 X105.00 Y31.20 E0.2495
G1 X100.00 Y31.60 E0
G1 X105.00 Y31.60 E0.2495
G1 X100.00 Y32.00 E0
G1 X105.00 Y32.00 E0.2495
G1 X100.00 Y32.40 E0
G1 X105.00 Y32.40 E0.2495
G1 X100.00 Y32.80 E0
G1 X105.00 Y32.80 E0.2495
G1 X100.00 Y33.20 E0
G1 X105.00 Y33.20 E0.2495
G1 X100.00 Y33.60 E0
G1 X105.00 Y33.60 E0.2495
G1 X100.00 Y34.00 E0
G1 X105.00 Y34.00 E0.2495
G1 X100.00 Y34.40 E0
G1 X105.00 Y34.40 E0.2495
G1 E-1 F2700
G1 Z0.80 F7200

G1 X100.00 Y35.00 F7200
G1 E0.9978 F2700
G1 X105.00 Y35.00 E0.9978 F1800
G1 X105.00 Y40.00 E0.9978
G1 X100.00 Y40.00 E0.9978
G1 X100.00 Y35.00 E0.9978
G1 X100.00 Y35.40 E0
G1 X105.00 Y35.40 E0.2495
G1 X100.00 Y35.80 E0
G1 X105.00 Y35.80 E0.2495
G1 X100.00 Y36.20 E0
G1 X105.00 Y36.20 E0.2495
G1 X100.00 Y36.60 E0
G1 X105.00 Y36.60 E0.2495
G1 X100.00 Y37.00 E0
G1 X105.00 Y37.00 E0.2495
G1 X100.00 Y37.40 E0
G1 X105.00 Y37.40 E0.2495
G1 X100.00 Y37.80 E0
G1 X105.00 Y37.80 E0.2495
G1 X100.00 Y38.20 E0
G1 X105.00 Y38.20 E0.2495
G1 X100.00 Y38.60 E0
G1 X105.00 Y38.60 E0.2495
G1 X100.00 Y39.00 E0
G1 X105.00 Y39.00 E0.2495
G1 X100.00 Y39.40 E0
G1 X105.00 Y39.40 E0.2495
G1 E-1 F2700
G1 Z0.80 F7200

G1 X100.00 Y40.00 F7200
G1 E0.9978 F2700
G1 X105.00 Y40.00 E0.9978 F1800
G1 X105.00 Y45.00 E0.9978
G1 X100.00 Y45.00 E0.9978
G1 X100.00 Y40.00 E0.9978
G1 X100.00 Y40.40 E0
G1 X105.00 Y40.40 E0.2495
G1 X100.00 Y40.80 E0
G1 X105.00 Y40.80 E0.2495
G1 X100.00 Y41.20 E0
G1 X105.00 Y41.20 E0.2495
G1 X100.00 Y41.60 E0
G1 X105.00 Y41.60 E0.2495
G1 X100.00 Y42.00 E0
G1 X105.00 Y42.00 E0.2495
G1 X100.00 Y42.40 E0
G1 X105.00 Y42.40 E0.2495
G1 X100.00 Y42.80 E0
G1 X105.00 Y42.80 E0.2495
G1 X100.00 Y43.20 E0
G1 X105.00 Y43.20 E0.2495
G1 X100.00 Y43.60 E0
G1 X105.00 Y43.60 E0.2495
G1 X100.00 Y44.00 E0
G1 X105.00 Y44.00 E0.2495
G1 X100.00 Y44.40 E0
G1 X105.00 Y44.40 E0.2495
G1 E-1 F2700
G1 Z0.80 F7200

G1 X100.00 Y45.00 F7200
G1 E0.9978 F2700
G1 X105.00 Y45.00 E0.9978 F1800
G1 X105.00 Y50.00 E0.9978
G1 X100.00 Y50.00 E0.9978
G1 X100.00 Y45.00 E0.9978
G1 X100.00 Y45.40 E0
G1 X105.00 Y45.40 E0.2495
G1 X100.00 Y45.80 E0
G1 X105.00 Y45.80 E0.2495
G1 X100.00 Y46.20 E0
G1 X105.00 Y46.20 E0.2495
G1 X100.00 Y46.60 E0
G1 X105.00 Y46.60 E0.2495
G1 X100.00 Y47.00 E0
G1 X105.00 Y47.00 E0.2495
G1 X100.00 Y47.40 E0
G1 X105.00 Y47.40 E0.2495
G1 X100.00 Y47.80 E0
G1 X105.00 Y47.80 E0.2495
G1 X100.00 Y48.20 E0
G1 X105.00 Y48.20 E0.2495
G1 X100.00 Y48.60 E0
G1 X105.00 Y48.60 E0.2495
G1 X100.00 Y49.00 E0
G1 X105.00 Y49.00 E0.2495
G1 X100.00 Y49.40 E0
G1 X105.00 Y49.40 E0.2495
G1 E-1 F2700
G1 Z0.80 F7200

G1 X100.00 Y50.00 F7200
G1 E0.9978 F2700
G1 X105.00 Y50.00 E0.9978 F1800
G1 X105.00 Y55.00 E0.9978
G1 X100.00 Y55.00 E0.9978
G1 X100.00 Y50.00 E0.9978
G1 X100.00 Y50.40 E0
G1 X105.00 Y50.40 E0.2495
G1 X100.00 Y50.80 E0
G1 X105.00 Y50.80 E0.2495
G1 X100.00 Y51.20 E0
G1 X105.00 Y51.20 E0.2495
G1 X100.00 Y51.60 E0
G1 X105.00 Y51.60 E0.2495
G1 X100.00 Y52.00 E0
G1 X105.00 Y52.00 E0.2495
G1 X100.00 Y52.40 E0
G1 X105.00 Y52.40 E0.2495
G1 X100.00 Y52.80 E0
G1 X105.00 Y52.80 E0.2495
G1 X100.00 Y53.20 E0
G1 X105.00 Y53.20 E0.2495
G1 X100.00 Y53.60 E0
G1 X105.00 Y53.60 E0.2495
G1 X100.00 Y54.00 E0
G1 X105.00 Y54.00 E0.2495
G1 X100.00 Y54.40 E0
G1 X105.00 Y54.40 E0.2495
G1 E-1 F2700
G1 Z0.80 F7200

G1 X105.00 Y50.00 F7200
G1 E0.9978 F2700
G1 X110.00 Y50.00 E0.9978 F1800
G1 X110.00 Y55.00 E0.9978
G1 X105.00 Y55.00 E0.9978
G1 X105.00 Y50.00 E0.9978
G1 X105.00 Y50.40 E0
G1 X110.00 Y50.40 E0.2495
G1 X105.00 Y50.80 E0
G1 X110.00 Y50.80 E0.2495
G1 X105.00 Y51.20 E0
G1 X110.00 Y51.20 E0.2495
G1 X105.00 Y51.60 E0
G1 X110.00 Y51.60 E0.2495
G1 X105.00 Y52.00 E0
G1 X110.00 Y52.00 E0.2495
G1 X105.00 Y52.40 E0
G1 X110.00 Y52.40 E0.2495
G1 X105.00 Y52.80 E0
G1 X110.00 Y52.80 E0.2495
G1 X105.00 Y53.20 E0
G1 X110.00 Y53.20 E0.2495
G1 X105.00 Y53.60 E0
G1 X110.00 Y53.60 E0.2495
G1 X105.00 Y54.00 E0
G1 X110.00 Y54.00 E0.2495
G1 X105.00 Y54.40 E0
G1 X110.00 Y54.40 E0.2495
G1 E-1 F2700
G1 Z0.80 F7200

G1 X110.00 Y50.00 F7200
G1 E0.9978 F2700
G1 X115.00 Y50.00 E0.9978 F1800
G1 X115.00 Y55.00 E0.9978
G1 X110.00 Y55.00 E0.9978
G1 X110.00 Y50.00 E0.9978
G1 X110.00 Y50.40 E0
G1 X115.00 Y50.40 E0.2495
G1 X110.00 Y50.80 E0
G1 X115.00 Y50.80 E0.2495
G1 X110.00 Y51.20 E0
G1 X115.00 Y51.20 E0.2495
G1 X110.00 Y51.60 E0
G1 X115.00 Y51.60 E0.2495
G1 X110.00 Y52.00 E0
G1 X115.00 Y52.00 E0.2495
G1 X110.00 Y52.40 E0
G1 X115.00 Y52.40 E0.2495
G1 X110.00 Y52.80 E0
G1 X115.00 Y52.80 E0.2495
G1 X110.00 Y53.20 E0
G1 X115.00 Y53.20 E0.2495
G1 X110.00 Y53.60 E0
G1 X115.00 Y53.60 E0.2495
G1 X110.00 Y54.00 E0
G1 X115.00 Y54.00 E0.2495
G1 X110.00 Y54.40 E0
G1 X115.00 Y54.40 E0.2495
G1 E-1 F2700
G1 Z0.80 F7200

G1 X115.00 Y50.00 F7200
G1 E0.9978 F2700
G1 X120.00 Y50.00 E0.9978 F1800
G1 X120.00 Y55.00 E0.9978
G1 X115.00 Y55.00 E0.9978
G1 X115.00 Y50.00 E0.9978
G1 X115.00 Y50.40 E0
G1 X120.00 Y50.40 E0.2495
G1 X115.00 Y50.80 E0
G1 X120.00 Y50.80 E0.2495
G1 X115.00 Y51.20 E0
G1 X120.00 Y51.20 E0.2495
G1 X115.00 Y51.60 E0
G1 X120.00 Y51.60 E0.2495
G1 X115.00 Y52.00 E0
G1 X120.00 Y52.00 E0.2495
G1 X115.00 Y52.40 E0
G1 X120.00 Y52.40 E0.2495
G1 X115.00 Y52.80 E0
G1 X120.00 Y52.80 E0.2495
G1 X115.00 Y53.20 E0
G1 X120.00 Y53.20 E0.2495
G1 X115.00 Y53.60 E0
G1 X120.00 Y53.60 E0.2495
G1 X115.00 Y54.00 E0
G1 X120.00 Y54.00 E0.2495
G1 X115.00 Y54.40 E0
G1 X120.00 Y54.40 E0.2495
G1 E-1 F2700
G1 Z0.80 F7200

G1 X120.00 Y50.00 F7200
G1 E0.9978 F2700
G1 X125.00 Y50.00 E0.9978 F1800
G1 X125.00 Y55.00 E0.9978
G1 X120.00 Y55.00 E0.9978
G1 X120.00 Y50.00 E0.9978
G1 X120.00 Y50.40 E0
G1 X125.00 Y50.40 E0.2495
G1 X120.00 Y50.80 E0
G1 X125.00 Y50.80 E0.2495
G1 X120.00 Y51.20 E0
G1 X125.00 Y51.20 E0.2495
G1 X120.00 Y51.60 E0
G1 X125.00 Y51.60 E0.2495
G1 X120.00 Y52.00 E0
G1 X125.00 Y52.00 E0.2495
G1 X120.00 Y52.40 E0
G1 X125.00 Y52.40 E0.2495
G1 X120.00 Y52.80 E0
G1 X125.00 Y52.80 E0.2495
G1 X120.00 Y53.20 E0
G1 X125.00 Y53.20 E0.2495
G1 X120.00 Y53.60 E0
G1 X125.00 Y53.60 E0.2495
G1 X120.00 Y54.00 E0
G1 X125.00 Y54.00 E0.2495
G1 X120.00 Y54.40 E0
G1 X125.00 Y54.40 E0.2495
G1 E-1 F2700
G1 Z0.80 F7200

G1 X125.00 Y50.00 F7200
G1 E0.9978 F2700
G1 X130.00 Y50.00 E0.9978 F1800
G1 X130.00 Y55.00 E0.9978
G1 X125.00 Y55.00 E0.9978
G1 X125.00 Y50.00 E0.9978
G1 X125.00 Y50.40 E0
G1 X130.00 Y50.40 E0.2495
G1 X125.00 Y50.80 E0
G1 X130.00 Y50.80 E0.2495
G1 X125.00 Y51.20 E0
G1 X130.00 Y51.20 E0.2495
G1 X125.00 Y51.60 E0
G1 X130.00 Y51.60 E0.2495
G1 X125.00 Y52.00 E0
G1 X130.00 Y52.00 E0.2495
G1 X125.00 Y52.40 E0
G1 X130.00 Y52.40 E0.2495
G1 X125.00 Y52.80 E0
G1 X130.00 Y52.80 E0.2495
G1 X125.00 Y53.20 E0
G1 X130.00 Y53.20 E0.2495
G1 X125.00 Y53.60 E0
G1 X130.00 Y53.60 E0.2495
G1 X125.00 Y54.00 E0
G1 X130.00 Y54.00 E0.2495
G1 X125.00 Y54.40 E0
G1 X130.00 Y54.40 E0.2495
G1 E-1 F2700
G1 Z0.80 F7200

G1 X130.00 Y50.00 F7200
G1 E0.9978 F2700
G1 X135.00 Y50.00 E0.9978 F1800
G1 X135.00 Y55.00 E0.9978
G1 X130.00 Y55.00 E0.9978
G1 X130.00 Y50.00 E0.9978
G1 X130.00 Y50.40 E0
G1 X135.00 Y50.40 E0.2495
G1 X130.00 Y50.80 E0
G1 X135.00 Y50.80 E0.2495
G1 X130.00 Y51.20 E0
G1 X135.00 Y51.20 E0.2495
G1 X130.00 Y51.60 E0
G1 X135.00 Y51.60 E0.2495
G1 X130.00 Y52.00 E0
G1 X135.00 Y52.00 E0.2495
G1 X130.00 Y52.40 E0
G1 X135.00 Y52.40 E0.2495
G1 X130.00 Y52.80 E0
G1 X135.00 Y52.80 E0.2495
G1 X130.00 Y53.20 E0
G1 X135.00 Y53.20 E0.2495
G1 X130.00 Y53.60 E0
G1 X135.00 Y53.60 E0.2495
G1 X130.00 Y54.00 E0
G1 X135.00 Y54.00 E0.2495
G1 X130.00 Y54.40 E0
G1 X135.00 Y54.40 E0.2495
G1 E-1 F2700
G1 Z0.80 F7200

G1 X140.00 Y20.00 F7200
G1 E0.9978 F2700
G1 X145.00 Y20.00 E0.9978 F1800
G1 X145.00 Y25.00 E0.9978
G1 X140.00 Y25.00 E0.9978
G1 X140.00 Y20.00 E0.9978
G1 X140.00 Y20.40 E0
G1 X145.00 Y20.40 E0.2495
G1 X140.00 Y20.80 E0
G1 X145.00 Y20.80 E0.2495
G1 X140.00 Y21.20 E0
G1 X145.00 Y21.20 E0.2495
G1 X140.00 Y21.60 E0
G1 X145.00 Y21.60 E0.2495
G1 X140.00 Y22.00 E0
G1 X145.00 Y22.00 E0.2495
G1 X140.00 Y22.40 E0
G1 X145.00 Y22.40 E0.2495
G1 X140.00 Y22.80 E0
G1 X145.00 Y22.80 E0.2495
G1 X140.00 Y23.20 E0
G1 X145.00 Y23.20 E0.2495
G1 X140.00 Y23.60 E0
G1 X145.00 Y23.60 E0.2495
G1 X140.00 Y24.00 E0
G1 X145.00 Y24.00 E0.2495
G1 X140.00 Y24.40 E0
G1 X145.00 Y24.40 E0.2495
G1 E-1 F2700
G1 Z0.80 F7200

G1 X140.00 Y25.00 F7200
G1 E0.9978 F2700
G1 X145.00 Y25.00 E0.9978 F1800
G1 X145.00 Y30.00 E0.9978
G1 X140.00 Y30.00 E0.9978
G1 X140.00 Y25.00 E0.9978
G1 X140.00 Y25.40 E0
G1 X145.00 Y25.40 E0.2495
G1 X140.00 Y25.80 E0
G1 X145.00 Y25.80 E0.2495
G1 X140.00 Y26.20 E0
G1 X145.00 Y26.20 E0.2495
G1 X140.00 Y26.60 E0
G1 X145.00 Y26.60 E0.2495
G1 X140.00 Y27.00 E0
G1 X145.00 Y27.00 E0.2495
G1 X140.00 Y27.40 E0
G1 X145.00 Y27.40 E0.2495
G1 X140.00 Y27.80 E0
G1 X145.00 Y27.80 E0.2495
G1 X140.00 Y28.20 E0
G1 X145.00 Y28.20 E0.2495
G1 X140.00 Y28.60 E0
G1 X145.00 Y28.60 E0.2495
G1 X140.00 Y29.00 E0
G1 X145.00 Y29.00 E0.2495
G1 X140.00 Y29.40 E0
G1 X145.00 Y29.40 E0.2495
G1 E-1 F2700
G1 Z0.80 F7200

G1 X140.00 Y30.00 F7200
G1 E0.9978 F2700
G1 X145.00 Y30.00 E0.9978 F1800
G1 X145.00 Y35.00 E0.9978
G1 X140.00 Y35.00 E0.9978
G1 X140.00 Y30.00 E0.9978
G1 X140.00 Y30.40 E0
G1 X145.00 Y30.40 E0.2495
G1 X140.00 Y30.80 E0
G1 X145.00 Y30.80 E0.2495
G1 X140.00 Y31.20 E0
G1 X145.00 Y31.20 E0.2495
G1 X140.00 Y31.60 E0
G1 X145.00 Y31.60 E0.2495
G1 X140.00 Y32.00 E0
G1 X145.00 Y32.00 E0.2495
G1 X140.00 Y32.40 E0
G1 X145.00 Y32.40 E0.2495
G1 X140.00 Y32.80 E0
G1 X145.00 Y32.80 E0.2495
G1 X140.00 Y33.20 E0
G1 X145.00 Y33.20 E0.2495
G1 X140.00 Y33.60 E0
G1 X145.00 Y33.60 E0.2495
G1 X140.00 Y34.00 E0
G1 X145.00 Y34.00 E0.2495
G1 X140.00 Y34.40 E0
G1 X145.00 Y34.40 E0.2495
G1 E-1 F2700
G1 Z0.80 F7200

G1 X140.00 Y35.00 F7200
G1 E0.9978 F2700
G1 X145.00 Y35.00 E0.9978 F1800
G1 X145.00 Y40.00 E0.9978
G1 X140.00 Y40.00 E0.9978
G1 X140.00 Y35.00 E0.9978
G1 X140.00 Y35.40 E0
G1 X145.00 Y35.40 E0.2495
G1 X140.00 Y35.80 E0
G1 X145.00 Y35.80 E0.2495
G1 X140.00 Y36.20 E0
G1 X145.00 Y36.20 E0.2495
G1 X140.00 Y36.60 E0
G1 X145.00 Y36.60 E0.2495
G1 X140.00 Y37.00 E0
G1 X145.00 Y37.00 E0.2495
G1 X140.00 Y37.40 E0
G1 X145.00 Y37.40 E0.2495
G1 X140.00 Y37.80 E0
G1 X145.00 Y37.80 E0.2495
G1 X140.00 Y38.20 E0
G1 X145.00 Y38.20 E0.2495
G1 X140.00 Y38.60 E0
G1 X145.00 Y38.60 E0.2495
G1 X140.00 Y39.00 E0
G1 X145.00 Y39.00 E0.2495
G1 X140.00 Y39.40 E0
G1 X145.00 Y39.40 E0.2495
G1 E-1 F2700
G1 Z0.80 F7200

G1 X140.00 Y40.00 F7200
G1 E0.9978 F2700
G1 X145.00 Y40.00 E0.9978 F1800
G1 X145.00 Y45.00 E0.9978
G1 X140.00 Y45.00 E0.9978
G1 X140.00 Y40.00 E0.9978
G1 X140.00 Y40.40 E0
G1 X145.00 Y40.40 E0.2495
G1 X140.00 Y40.80 E0
G1 X145.00 Y40.80 E0.2495
G1 X140.00 Y41.20 E0
G1 X145.00 Y41.20 E0.2495
G1 X140.00 Y41.60 E0
G1 X145.00 Y41.60 E0.2495
G1 X140.00 Y42.00 E0
G1 X145.00 Y42.00 E0.2495
G1 X140.00 Y42.40 E0
G1 X145.00 Y42.40 E0.2495
G1 X140.00 Y42.80 E0
G1 X145.00 Y42.80 E0.2495
G1 X140.00 Y43.20 E0
G1 X145.00 Y43.20 E0.2495
G1 X140.00 Y43.60 E0
G1 X145.00 Y43.60 E0.2495
G1 X140.00 Y44.00 E0
G1 X145.00 Y44.00 E0.2495
G1 X140.00 Y44.40 E0
G1 X145.00 Y44.40 E0.2495
G1 E-1 F2700
G1 Z0.80 F7200

G1 X140.00 Y45.00 F7200
G1 E0.9978 F2700
G1 X145.00 Y45.00 E0.9978 F1800
G1 X145.00 Y50.00 E0.9978
G1 X140.00 Y50.00 E0.9978
G1 X140.00 Y45.00 E0.9978
G1 X140.00 Y45.40 E0
G1 X145.00 Y45.40 E0.2495
G1 X140.00 Y45.80 E0
G1 X145.00 Y45.80 E0.2495
G1 X140.00 Y46.20 E0
G1 X145.00 Y46.20 E0.2495
G1 X140.00 Y46.60 E0
G1 X145.00 Y46.60 E0.2495
G1 X140.00 Y47.00 E0
G1 X145.00 Y47.00 E0.2495
G1 X140.00 Y47.40 E0
G1 X145.00 Y47.40 E0.2495
G1 X140.00 Y47.80 E0
G1 X145.00 Y47.80 E0.2495
G1 X140.00 Y48.20 E0
G1 X145.00 Y48.20 E0.2495
G1 X140.00 Y48.60 E0
G1 X145.00 Y48.60 E0.2495
G1 X140.00 Y49.00 E0
G1 X145.00 Y49.00 E0.2495
G1 X140.00 Y49.40 E0
G1 X145.00 Y49.40 E0.2495
G1 E-1 F2700
G1 Z0.80 F7200

G1 X140.00 Y50.00 F7200
G1 E0.9978 F2700
G1 X145.00 Y50.00 E0.9978 F1800
G1 X145.00 Y55.00 E0.9978
G1 X140.00 Y55.00 E0.9978
G1 X140.00 Y50.00 E0.9978
G1 X140.00 Y50.40 E0
G1 X145.00 Y50.40 E0.2495
G1 X140.00 Y50.80 E0
G1 X145.00 Y50.80 E0.2495
G1 X140.00 Y51.20 E0
G1 X145.00 Y51.20 E0.2495
G1 X140.00 Y51.60 E0
G1 X145.00 Y51.60 E0.2495
G1 X140.00 Y52.00 E0
G1 X145.00 Y52.00 E0.2495
G1 X140.00 Y52.40 E0
G1 X145.00 Y52.40 E0.2495
G1 X140.00 Y52.80 E0
G1 X145.00 Y52.80 E0.2495
G1 X140.00 Y53.20 E0
G1 X145.00 Y53.20 E0.2495
G1 X140.00 Y53.60 E0
G1 X145.00 Y53.60 E0.2495
G1 X140.00 Y54.00 E0
G1 X145.00 Y54.00 E0.2495
G1 X140.00 Y54.40 E0
G1 X145.00 Y54.40 E0.2495
G1 E-1 F2700
G1 Z0.80 F7200

G1 X145.00 Y50.00 F7200
G1 E0.9978 F2700
G1 X150.00 Y50.00 E0.9978 F1800
G1 X150.00 Y55.00 E0.9978
G1 X145.00 Y55.00 E0.9978
G1 X145.00 Y50.00 E0.9978
G1 X145.00 Y50.40 E0
G1 X150.00 Y50.40 E0.2495
G1 X145.00 Y50.80 E0
G1 X150.00 Y50.80 E0.2495
G1 X145.00 Y51.20 E0
G1 X150.00 Y51.20 E0.2495
G1 X145.00 Y51.60 E0
G1 X150.00 Y51.60 E0.2495
G1 X145.00 Y52.00 E0
G1 X150.00 Y52.00 E0.2495
G1 X145.00 Y52.40 E0
G1 X150.00 Y52.40 E0.2495
G1 X145.00 Y52.80 E0
G1 X150.00 Y52.80 E0.2495
G1 X145.00 Y53.20 E0
G1 X150.00 Y53.20 E0.2495
G1 X145.00 Y53.60 E0
G1 X150.00 Y53.60 E0.2495
G1 X145.00 Y54.00 E0
G1 X150.00 Y54.00 E0.2495
G1 X145.00 Y54.40 E0
G1 X150.00 Y54.40 E0.2495
G1 E-1 F2700
G1 Z0.80 F7200

G1 X150.00 Y50.00 F7200
G1 E0.9978 F2700
G1 X155.00 Y50.00 E0.9978 F1800
G1 X155.00 Y55.00 E0.9978
G1 X150.00 Y55.00 E0.9978
G1 X150.00 Y50.00 E0.9978
G1 X150.00 Y50.40 E0
G1 X155.00 Y50.40 E0.2495
G1 X150.00 Y50.80 E0
G1 X155.00 Y50.80 E0.2495
G1 X150.00 Y51.20 E0
G1 X155.00 Y51.20 E0.2495
G1 X150.00 Y51.60 E0
G1 X155.00 Y51.60 E0.2495
G1 X150.00 Y52.00 E0
G1 X155.00 Y52.00 E0.2495
G1 X150.00 Y52.40 E0
G1 X155.00 Y52.40 E0.2495
G1 X150.00 Y52.80 E0
G1 X155.00 Y52.80 E0.2495
G1 X150.00 Y53.20 E0
G1 X155.00 Y53.20 E0.2495
G1 X150.00 Y53.60 E0
G1 X155.00 Y53.60 E0.2495
G1 X150.00 Y54.00 E0
G1 X155.00 Y54.00 E0.2495
G1 X150.00 Y54.40 E0
G1 X155.00 Y54.40 E0.2495
G1 E-1 F2700
G1 Z0.80 F7200

G1 X155.00 Y50.00 F7200
G1 E0.9978 F2700
G1 X160.00 Y50.00 E0.9978 F1800
G1 X160.00 Y55.00 E0.9978
G1 X155.00 Y55.00 E0.9978
G1 X155.00 Y50.00 E0.9978
G1 X155.00 Y50.40 E0
G1 X160.00 Y50.40 E0.2495
G1 X155.00 Y50.80 E0
G1 X160.00 Y50.80 E0.2495
G1 X155.00 Y51.20 E0
G1 X160.00 Y51.20 E0.2495
G1 X155.00 Y51.60 E0
G1 X160.00 Y51.60 E0.2495
G1 X155.00 Y52.00 E0
G1 X160.00 Y52.00 E0.2495
G1 X155.00 Y52.40 E0
G1 X160.00 Y52.40 E0.2495
G1 X155.00 Y52.80 E0
G1 X160.00 Y52.80 E0.2495
G1 X155.00 Y53.20 E0
G1 X160.00 Y53.20 E0.2495
G1 X155.00 Y53.60 E0
G1 X160.00 Y53.60 E0.2495
G1 X155.00 Y54.00 E0
G1 X160.00 Y54.00 E0.2495
G1 X155.00 Y54.40 E0
G1 X160.00 Y54.40 E0.2495
G1 E-1 F2700
G1 Z0.80 F7200

G1 X160.00 Y50.00 F7200
G1 E0.9978 F2700
G1 X165.00 Y50.00 E0.9978 F1800
G1 X165.00 Y55.00 E0.9978
G1 X160.00 Y55.00 E0.9978
G1 X160.00 Y50.00 E0.9978
G1 X160.00 Y50.40 E0
G1 X165.00 Y50.40 E0.2495
G1 X160.00 Y50.80 E0
G1 X165.00 Y50.80 E0.2495
G1 X160.00 Y51.20 E0
G1 X165.00 Y51.20 E0.2495
G1 X160.00 Y51.60 E0
G1 X165.00 Y51.60 E0.2495
G1 X160.00 Y52.00 E0
G1 X165.00 Y52.00 E0.2495
G1 X160.00 Y52.40 E0
G1 X165.00 Y52.40 E0.2495
G1 X160.00 Y52.80 E0
G1 X165.00 Y52.80 E0.2495
G1 X160.00 Y53.20 E0
G1 X165.00 Y53.20 E0.2495
G1 X160.00 Y53.60 E0
G1 X165.00 Y53.60 E0.2495
G1 X160.00 Y54.00 E0
G1 X165.00 Y54.00 E0.2495
G1 X160.00 Y54.40 E0
G1 X165.00 Y54.40 E0.2495
G1 E-1 F2700
G1 Z0.80 F7200

G1 X165.00 Y50.00 F7200
G1 E0.9978 F2700
G1 X170.00 Y50.00 E0.9978 F1800
G1 X170.00 Y55.00 E0.9978
G1 X165.00 Y55.00 E0.9978
G1 X165.00 Y50.00 E0.9978
G1 X165.00 Y50.40 E0
G1 X170.00 Y50.40 E0.2495
G1 X165.00 Y50.80 E0
G1 X170.00 Y50.80 E0.2495
G1 X165.00 Y51.20 E0
G1 X170.00 Y51.20 E0.2495
G1 X165.00 Y51.60 E0
G1 X170.00 Y51.60 E0.2495
G1 X165.00 Y52.00 E0
G1 X170.00 Y52.00 E0.2495
G1 X165.00 Y52.40 E0
G1 X170.00 Y52.40 E0.2495
G1 X165.00 Y52.80 E0
G1 X170.00 Y52.80 E0.2495
G1 X165.00 Y53.20 E0
G1 X170.00 Y53.20 E0.2495
G1 X165.00 Y53.60 E0
G1 X170.00 Y53.60 E0.2495
G1 X165.00 Y54.00 E0
G1 X170.00 Y54.00 E0.2495
G1 X165.00 Y54.40 E0
G1 X170.00 Y54.40 E0.2495
G1 E-1 F2700
G1 Z0.80 F7200

G1 X170.00 Y50.00 F7200
G1 E0.9978 F2700
G1 X175.00 Y50.00 E0.9978 F1800
G1 X175.00 Y55.00 E0.9978
G1 X170.00 Y55.00 E0.9978
G1 X170.00 Y50.00 E0.9978
G1 X170.00 Y50.40 E0
G1 X175.00 Y50.40 E0.2495
G1 X170.00 Y50.80 E0
G1 X175.00 Y50.80 E0.2495
G1 X170.00 Y51.20 E0
G1 X175.00 Y51.20 E0.2495
G1 X170.00 Y51.60 E0
G1 X175.00 Y51.60 E0.2495
G1 X170.00 Y52.00 E0
G1 X175.00 Y52.00 E0.2495
G1 X170.00 Y52.40 E0
G1 X175.00 Y52.40 E0.2495
G1 X170.00 Y52.80 E0
G1 X175.00 Y52.80 E0.2495
G1 X170.00 Y53.20 E0
G1 X175.00 Y53.20 E0.2495
G1 X170.00 Y53.60 E0
G1 X175.00 Y53.60 E0.2495
G1 X170.00 Y54.00 E0
G1 X175.00 Y54.00 E0.2495
G1 X170.00 Y54.40 E0
G1 X175.00 Y54.40 E0.2495
G1 E-1 F2700
G1 Z0.80 F7200

G1 X185.00 Y20.00 F7200
G1 E0.9978 F2700
G1 X190.00 Y20.00 E0.9978 F1800
G1 X190.00 Y25.00 E0.9978
G1 X185.00 Y25.00 E0.9978
G1 X185.00 Y20.00 E0.9978
G1 X185.00 Y20.40 E0
G1 X190.00 Y20.40 E0.2495
G1 X185.00 Y20.80 E0
G1 X190.00 Y20.80 E0.2495
G1 X185.00 Y21.20 E0
G1 X190.00 Y21.20 E0.2495
G1 X185.00 Y21.60 E0
G1 X190.00 Y21.60 E0.2495
G1 X185.00 Y22.00 E0
G1 X190.00 Y22.00 E0.2495
G1 X185.00 Y22.40 E0
G1 X190.00 Y22.40 E0.2495
G1 X185.00 Y22.80 E0
G1 X190.00 Y22.80 E0.2495
G1 X185.00 Y23.20 E0
G1 X190.00 Y23.20 E0.2495
G1 X185.00 Y23.60 E0
G1 X190.00 Y23.60 E0.2495
G1 X185.00 Y24.00 E0
G1 X190.00 Y24.00 E0.2495
G1 X185.00 Y24.40 E0
G1 X190.00 Y24.40 E0.2495
G1 E-1 F2700
G1 Z0.80 F7200

G1 X190.00 Y20.00 F7200
G1 E0.9978 F2700
G1 X195.00 Y20.00 E0.9978 F1800
G1 X195.00 Y25.00 E0.9978
G1 X190.00 Y25.00 E0.9978
G1 X190.00 Y20.00 E0.9978
G1 X190.00 Y20.40 E0
G1 X195.00 Y20.40 E0.2495
G1 X190.00 Y20.80 E0
G1 X195.00 Y20.80 E0.2495
G1 X190.00 Y21.20 E0
G1 X195.00 Y21.20 E0.2495
G1 X190.00 Y21.60 E0
G1 X195.00 Y21.60 E0.2495
G1 X190.00 Y22.00 E0
G1 X195.00 Y22.00 E0.2495
G1 X190.00 Y22.40 E0
G1 X195.00 Y22.40 E0.2495
G1 X190.00 Y22.80 E0
G1 X195.00 Y22.80 E0.2495
G1 X190.00 Y23.20 E0
G1 X195.00 Y23.20 E0.2495
G1 X190.00 Y23.60 E0
G1 X195.00 Y23.60 E0.2495
G1 X190.00 Y24.00 E0
G1 X195.00 Y24.00 E0.2495
G1 X190.00 Y24.40 E0
G1 X195.00 Y24.40 E0.2495
G1 E-1 F2700
G1 Z0.80 F7200

G1 X195.00 Y20.00 F7200
G1 E0.9978 F2700
G1 X200.00 Y20.00 E0.9978 F1800
G1 X200.00 Y25.00 E0.9978
G1 X195.00 Y25.00 E0.9978
G1 X195.00 Y20.00 E0.9978
G1 X195.00 Y20.40 E0
G1 X200.00 Y20.40 E0.2495
G1 X195.00 Y20.80 E0
G1 X200.00 Y20.80 E0.2495
G1 X195.00 Y21.20 E0
G1 X200.00 Y21.20 E0.2495
G1 X195.00 Y21.60 E0
G1 X200.00 Y21.60 E0.2495
G1 X195.00 Y22.00 E0
G1 X200.00 Y22.00 E0.2495
G1 X195.00 Y22.40 E0
G1 X200.00 Y22.40 E0.2495
G1 X195.00 Y22.80 E0
G1 X200.00 Y22.80 E0.2495
G1 X195.00 Y23.20 E0
G1 X200.00 Y23.20 E0.2495
G1 X195.00 Y23.60 E0
G1 X200.00 Y23.60 E0.2495
G1 X195.00 Y24.00 E0
G1 X200.00 Y24.00 E0.2495
G1 X195.00 Y24.40 E0
G1 X200.00 Y24.40 E0.2495
G1 E-1 F2700
G1 Z0.80 F7200

G1 X200.00 Y20.00 F7200
G1 E0.9978 F2700
G1 X205.00 Y20.00 E0.9978 F1800
G1 X205.00 Y25.00 E0.9978
G1 X200.00 Y25.00 E0.9978
G1 X200.00 Y20.00 E0.9978
G1 X200.00 Y20.40 E0
G1 X205.00 Y20.40 E0.2495
G1 X200.00 Y20.80 E0
G1 X205.00 Y20.80 E0.2495
G1 X200.00 Y21.20 E0
G1 X205.00 Y21.20 E0.2495
G1 X200.00 Y21.60 E0
G1 X205.00 Y21.60 E0.2495
G1 X200.00 Y22.00 E0
G1 X205.00 Y22.00 E0.2495
G1 X200.00 Y22.40 E0
G1 X205.00 Y22.40 E0.2495
G1 X200.00 Y22.80 E0
G1 X205.00 Y22.80 E0.2495
G1 X200.00 Y23.20 E0
G1 X205.00 Y23.20 E0.2495
G1 X200.00 Y23.60 E0
G1 X205.00 Y23.60 E0.2495
G1 X200.00 Y24.00 E0
G1 X205.00 Y24.00 E0.2495
G1 X200.00 Y24.40 E0
G1 X205.00 Y24.40 E0.2495
G1 E-1 F2700
G1 Z0.80 F7200

G1 X205.00 Y20.00 F7200
G1 E0.9978 F2700
G1 X210.00 Y20.00 E0.9978 F1800
G1 X210.00 Y25.00 E0.9978
G1 X205.00 Y25.00 E0.9978
G1 X205.00 Y20.00 E0.9978
G1 X205.00 Y20.40 E0
G1 X210.00 Y20.40 E0.2495
G1 X205.00 Y20.80 E0
G1 X210.00 Y20.80 E0.2495
G1 X205.00 Y21.20 E0
G1 X210.00 Y21.20 E0.2495
G1 X205.00 Y21.60 E0
G1 X210.00 Y21.60 E0.2495
G1 X205.00 Y22.00 E0
G1 X210.00 Y22.00 E0.2495
G1 X205.00 Y22.40 E0
G1 X210.00 Y22.40 E0.2495
G1 X205.00 Y22.80 E0
G1 X210.00 Y22.80 E0.2495
G1 X205.00 Y23.20 E0
G1 X210.00 Y23.20 E0.2495
G1 X205.00 Y23.60 E0
G1 X210.00 Y23.60 E0.2495
G1 X205.00 Y24.00 E0
G1 X210.00 Y24.00 E0.2495
G1 X205.00 Y24.40 E0
G1 X210.00 Y24.40 E0.2495
G1 E-1 F2700
G1 Z0.80 F7200

G1 X180.00 Y25.00 F7200
G1 E0.9978 F2700
G1 X185.00 Y25.00 E0.9978 F1800
G1 X185.00 Y30.00 E0.9978
G1 X180.00 Y30.00 E0.9978
G1 X180.00 Y25.00 E0.9978
G1 X180.00 Y25.40 E0
G1 X185.00 Y25.40 E0.2495
G1 X180.00 Y25.80 E0
G1 X185.00 Y25.80 E0.2495
G1 X180.00 Y26.20 E0
G1 X185.00 Y26.20 E0.2495
G1 X180.00 Y26.60 E0
G1 X185.00 Y26.60 E0.2495
G1 X180.00 Y27.00 E0
G1 X185.00 Y27.00 E0.2495
G1 X180.00 Y27.40 E0
G1 X185.00 Y27.40 E0.2495
G1 X180.00 Y27.80 E0
G1 X185.00 Y27.80 E0.2495
G1 X180.00 Y28.20 E0
G1 X185.00 Y28.20 E0.2495
G1 X180.00 Y28.60 E0
G1 X185.00 Y28.60 E0.2495
G1 X180.00 Y29.00 E0
G1 X185.00 Y29.00 E0.2495
G1 X180.00 Y29.40 E0
G1 X185.00 Y29.40 E0.2495
G1 E-1 F2700
G1 Z0.80 F7200

G1 X210.00 Y25.00 F7200
G1 E0.9978 F2700
G1 X215.00 Y25.00 E0.9978 F1800
G1 X215.00 Y30.00 E0.9978
G1 X210.00 Y30.00 E0.9978
G1 X210.00 Y25.00 E0.9978
G1 X210.00 Y25.40 E0
G1 X215.00 Y25.40 E0.2495
G1 X210.00 Y25.80 E0
G1 X215.00 Y25.80 E0.2495
G1 X210.00 Y26.20 E0
G1 X215.00 Y26.20 E0.2495
G1 X210.00 Y26.60 E0
G1 X215.00 Y26.60 E0.2495
G1 X210.00 Y27.00 E0
G1 X215.00 Y27.00 E0.2495
G1 X210.00 Y27.40 E0
G1 X215.00 Y27.40 E0.2495
G1 X210.00 Y27.80 E0
G1 X215.00 Y27.80 E0.2495
G1 X210.00 Y28.20 E0
G1 X215.00 Y28.20 E0.2495
G1 X210.00 Y28.60 E0
G1 X215.00 Y28.60 E0.2495
G1 X210.00 Y29.00 E0
G1 X215.00 Y29.00 E0.2495
G1 X210.00 Y29.40 E0
G1 X215.00 Y29.40 E0.2495
G1 E-1 F2700
G1 Z0.80 F7200

G1 X180.00 Y30.00 F7200
G1 E0.9978 F2700
G1 X185.00 Y30.00 E0.9978 F1800
G1 X185.00 Y35.00 E0.9978
G1 X180.00 Y35.00 E0.9978
G1 X180.00 Y30.00 E0.9978
G1 X180.00 Y30.40 E0
G1 X185.00 Y30.40 E0.2495
G1 X180.00 Y30.80 E0
G1 X185.00 Y30.80 E0.2495
G1 X180.00 Y31.20 E0
G1 X185.00 Y31.20 E0.2495
G1 X180.00 Y31.60 E0
G1 X185.00 Y31.60 E0.2495
G1 X180.00 Y32.00 E0
G1 X185.00 Y32.00 E0.2495
G1 X180.00 Y32.40 E0
G1 X185.00 Y32.40 E0.2495
G1 X180.00 Y32.80 E0
G1 X185.00 Y32.80 E0.2495
G1 X180.00 Y33.20 E0
G1 X185.00 Y33.20 E0.2495
G1 X180.00 Y33.60 E0
G1 X185.00 Y33.60 E0.2495
G1 X180.00 Y34.00 E0
G1 X185.00 Y34.00 E0.2495
G1 X180.00 Y34.40 E0
G1 X185.00 Y34.40 E0.2495
G1 E-1 F2700
G1 Z0.80 F7200

G1 X210.00 Y30.00 F7200
G1 E0.9978 F2700
G1 X215.00 Y30.00 E0.9978 F1800
G1 X215.00 Y35.00 E0.9978
G1 X210.00 Y35.00 E0.9978
G1 X210.00 Y30.00 E0.9978
G1 X210.00 Y30.40 E0
G1 X215.00 Y30.40 E0.2495
G1 X210.00 Y30.80 E0
G1 X215.00 Y30.80 E0.2495
G1 X210.00 Y31.20 E0
G1 X215.00 Y31.20 E0.2495
G1 X210.00 Y31.60 E0
G1 X215.00 Y31.60 E0.2495
G1 X210.00 Y32.00 E0
G1 X215.00 Y32.00 E0.2495
G1 X210.00 Y32.40 E0
G1 X215.00 Y32.40 E0.2495
G1 X210.00 Y32.80 E0
G1 X215.00 Y32.80 E0.2495
G1 X210.00 Y33.20 E0
G1 X215.00 Y33.20 E0.2495
G1 X210.00 Y33.60 E0
G1 X215.00 Y33.60 E0.2495
G1 X210.00 Y34.00 E0
G1 X215.00 Y34.00 E0.2495
G1 X210.00 Y34.40 E0
G1 X215.00 Y34.40 E0.2495
G1 E-1 F2700
G1 Z0.80 F7200

G1 X180.00 Y35.00 F7200
G1 E0.9978 F2700
G1 X185.00 Y35.00 E0.9978 F1800
G1 X185.00 Y40.00 E0.9978
G1 X180.00 Y40.00 E0.9978
G1 X180.00 Y35.00 E0.9978
G1 X180.00 Y35.40 E0
G1 X185.00 Y35.40 E0.2495
G1 X180.00 Y35.80 E0
G1 X185.00 Y35.80 E0.2495
G1 X180.00 Y36.20 E0
G1 X185.00 Y36.20 E0.2495
G1 X180.00 Y36.60 E0
G1 X185.00 Y36.60 E0.2495
G1 X180.00 Y37.00 E0
G1 X185.00 Y37.00 E0.2495
G1 X180.00 Y37.40 E0
G1 X185.00 Y37.40 E0.2495
G1 X180.00 Y37.80 E0
G1 X185.00 Y37.80 E0.2495
G1 X180.00 Y38.20 E0
G1 X185.00 Y38.20 E0.2495
G1 X180.00 Y38.60 E0
G1 X185.00 Y38.60 E0.2495
G1 X180.00 Y39.00 E0
G1 X185.00 Y39.00 E0.2495
G1 X180.00 Y39.40 E0
G1 X185.00 Y39.40 E0.2495
G1 E-1 F2700
G1 Z0.80 F7200

G1 X210.00 Y35.00 F7200
G1 E0.9978 F2700
G1 X215.00 Y35.00 E0.9978 F1800
G1 X215.00 Y40.00 E0.9978
G1 X210.00 Y40.00 E0.9978
G1 X210.00 Y35.00 E0.9978
G1 X210.00 Y35.40 E0
G1 X215.00 Y35.40 E0.2495
G1 X210.00 Y35.80 E0
G1 X215.00 Y35.80 E0.2495
G1 X210.00 Y36.20 E0
G1 X215.00 Y36.20 E0.2495
G1 X210.00 Y36.60 E0
G1 X215.00 Y36.60 E0.2495
G1 X210.00 Y37.00 E0
G1 X215.00 Y37.00 E0.2495
G1 X210.00 Y37.40 E0
G1 X215.00 Y37.40 E0.2495
G1 X210.00 Y37.80 E0
G1 X215.00 Y37.80 E0.2495
G1 X210.00 Y38.20 E0
G1 X215.00 Y38.20 E0.2495
G1 X210.00 Y38.60 E0
G1 X215.00 Y38.60 E0.2495
G1 X210.00 Y39.00 E0
G1 X215.00 Y39.00 E0.2495
G1 X210.00 Y39.40 E0
G1 X215.00 Y39.40 E0.2495
G1 E-1 F2700
G1 Z0.80 F7200

G1 X180.00 Y40.00 F7200
G1 E0.9978 F2700
G1 X185.00 Y40.00 E0.9978 F1800
G1 X185.00 Y45.00 E0.9978
G1 X180.00 Y45.00 E0.9978
G1 X180.00 Y40.00 E0.9978
G1 X180.00 Y40.40 E0
G1 X185.00 Y40.40 E0.2495
G1 X180.00 Y40.80 E0
G1 X185.00 Y40.80 E0.2495
G1 X180.00 Y41.20 E0
G1 X185.00 Y41.20 E0.2495
G1 X180.00 Y41.60 E0
G1 X185.00 Y41.60 E0.2495
G1 X180.00 Y42.00 E0
G1 X185.00 Y42.00 E0.2495
G1 X180.00 Y42.40 E0
G1 X185.00 Y42.40 E0.2495
G1 X180.00 Y42.80 E0
G1 X185.00 Y42.80 E0.2495
G1 X180.00 Y43.20 E0
G1 X185.00 Y43.20 E0.2495
G1 X180.00 Y43.60 E0
G1 X185.00 Y43.60 E0.2495
G1 X180.00 Y44.00 E0
G1 X185.00 Y44.00 E0.2495
G1 X180.00 Y44.40 E0
G1 X185.00 Y44.40 E0.2495
G1 E-1 F2700
G1 Z0.80 F7200

G1 X210.00 Y40.00 F7200
G1 E0.9978 F2700
G1 X215.00 Y40.00 E0.9978 F1800
G1 X215.00 Y45.00 E0.9978
G1 X210.00 Y45.00 E0.9978
G1 X210.00 Y40.00 E0.9978
G1 X210.00 Y40.40 E0
G1 X215.00 Y40.40 E0.2495
G1 X210.00 Y40.80 E0
G1 X215.00 Y40.80 E0.2495
G1 X210.00 Y41.20 E0
G1 X215.00 Y41.20 E0.2495
G1 X210.00 Y41.60 E0
G1 X215.00 Y41.60 E0.2495
G1 X210.00 Y42.00 E0
G1 X215.00 Y42.00 E0.2495
G1 X210.00 Y42.40 E0
G1 X215.00 Y42.40 E0.2495
G1 X210.00 Y42.80 E0
G1 X215.00 Y42.80 E0.2495
G1 X210.00 Y43.20 E0
G1 X215.00 Y43.20 E0.2495
G1 X210.00 Y43.60 E0
G1 X215.00 Y43.60 E0.2495
G1 X210.00 Y44.00 E0
G1 X215.00 Y44.00 E0.2495
G1 X210.00 Y44.40 E0
G1 X215.00 Y44.40 E0.2495
G1 E-1 F2700
G1 Z0.80 F7200

G1 X180.00 Y45.00 F7200
G1 E0.9978 F2700
G1 X185.00 Y45.00 E0.9978 F1800
G1 X185.00 Y50.00 E0.9978
G1 X180.00 Y50.00 E0.9978
G1 X180.00 Y45.00 E0.9978
G1 X180.00 Y45.40 E0
G1 X185.00 Y45.40 E0.2495
G1 X180.00 Y45.80 E0
G1 X185.00 Y45.80 E0.2495
G1 X180.00 Y46.20 E0
G1 X185.00 Y46.20 E0.2495
G1 X180.00 Y46.60 E0
G1 X185.00 Y46.60 E0.2495
G1 X180.00 Y47.00 E0
G1 X185.00 Y47.00 E0.2495
G1 X180.00 Y47.40 E0
G1 X185.00 Y47.40 E0.2495
G1 X180.00 Y47.80 E0
G1 X185.00 Y47.80 E0.2495
G1 X180.00 Y48.20 E0
G1 X185.00 Y48.20 E0.2495
G1 X180.00 Y48.60 E0
G1 X185.00 Y48.60 E0.2495
G1 X180.00 Y49.00 E0
G1 X185.00 Y49.00 E0.2495
G1 X180.00 Y49.40 E0
G1 X185.00 Y49.40 E0.2495
G1 E-1 F2700
G1 Z0.80 F7200

G1 X210.00 Y45.00 F7200
G1 E0.9978 F2700
G1 X215.00 Y45.00 E0.9978 F1800
G1 X215.00 Y50.00 E0.9978
G1 X210.00 Y50.00 E0.9978
G1 X210.00 Y45.00 E0.9978
G1 X210.00 Y45.40 E0
G1 X215.00 Y45.40 E0.2495
G1 X210.00 Y45.80 E0
G1 X215.00 Y45.80 E0.2495
G1 X210.00 Y46.20 E0
G1 X215.00 Y46.20 E0.2495
G1 X210.00 Y46.60 E0
G1 X215.00 Y46.60 E0.2495
G1 X210.00 Y47.00 E0
G1 X215.00 Y47.00 E0.2495
G1 X210.00 Y47.40 E0
G1 X215.00 Y47.40 E0.2495
G1 X210.00 Y47.80 E0
G1 X215.00 Y47.80 E0.2495
G1 X210.00 Y48.20 E0
G1 X215.00 Y48.20 E0.2495
G1 X210.00 Y48.60 E0
G1 X215.00 Y48.60 E0.2495
G1 X210.00 Y49.00 E0
G1 X215.00 Y49.00 E0.2495
G1 X210.00 Y49.40 E0
G1 X215.00 Y49.40 E0.2495
G1 E-1 F2700
G1 Z0.80 F7200

G1 X185.00 Y50.00 F7200
G1 E0.9978 F2700
G1 X190.00 Y50.00 E0.9978 F1800
G1 X190.00 Y55.00 E0.9978
G1 X185.00 Y55.00 E0.9978
G1 X185.00 Y50.00 E0.9978
G1 X185.00 Y50.40 E0
G1 X190.00 Y50.40 E0.2495
G1 X185.00 Y50.80 E0
G1 X190.00 Y50.80 E0.2495
G1 X185.00 Y51.20 E0
G1 X190.00 Y51.20 E0.2495
G1 X185.00 Y51.60 E0
G1 X190.00 Y51.60 E0.2495
G1 X185.00 Y52.00 E0
G1 X190.00 Y52.00 E0.2495
G1 X185.00 Y52.40 E0
G1 X190.00 Y52.40 E0.2495
G1 X185.00 Y52.80 E0
G1 X190.00 Y52.80 E0.2495
G1 X185.00 Y53.20 E0
G1 X190.00 Y53.20 E0.2495
G1 X185.00 Y53.60 E0
G1 X190.00 Y53.60 E0.2495
G1 X185.00 Y54.00 E0
G1 X190.00 Y54.00 E0.2495
G1 X185.00 Y54.40 E0
G1 X190.00 Y54.40 E0.2495
G1 E-1 F2700
G1 Z0.80 F7200

G1 X190.00 Y50.00 F7200
G1 E0.9978 F2700
G1 X195.00 Y50.00 E0.9978 F1800
G1 X195.00 Y55.00 E0.9978
G1 X190.00 Y55.00 E0.9978
G1 X190.00 Y50.00 E0.9978
G1 X190.00 Y50.40 E0
G1 X195.00 Y50.40 E0.2495
G1 X190.00 Y50.80 E0
G1 X195.00 Y50.80 E0.2495
G1 X190.00 Y51.20 E0
G1 X195.00 Y51.20 E0.2495
G1 X190.00 Y51.60 E0
G1 X195.00 Y51.60 E0.2495
G1 X190.00 Y52.00 E0
G1 X195.00 Y52.00 E0.2495
G1 X190.00 Y52.40 E0
G1 X195.00 Y52.40 E0.2495
G1 X190.00 Y52.80 E0
G1 X195.00 Y52.80 E0.2495
G1 X190.00 Y53.20 E0
G1 X195.00 Y53.20 E0.2495
G1 X190.00 Y53.60 E0
G1 X195.00 Y53.60 E0.2495
G1 X190.00 Y54.00 E0
G1 X195.00 Y54.00 E0.2495
G1 X190.00 Y54.40 E0
G1 X195.00 Y54.40 E0.2495
G1 E-1 F2700
G1 Z0.80 F7200

G1 X195.00 Y50.00 F7200
G1 E0.9978 F2700
G1 X200.00 Y50.00 E0.9978 F1800
G1 X200.00 Y55.00 E0.9978
G1 X195.00 Y55.00 E0.9978
G1 X195.00 Y50.00 E0.9978
G1 X195.00 Y50.40 E0
G1 X200.00 Y50.40 E0.2495
G1 X195.00 Y50.80 E0
G1 X200.00 Y50.80 E0.2495
G1 X195.00 Y51.20 E0
G1 X200.00 Y51.20 E0.2495
G1 X195.00 Y51.60 E0
G1 X200.00 Y51.60 E0.2495
G1 X195.00 Y52.00 E0
G1 X200.00 Y52.00 E0.2495
G1 X195.00 Y52.40 E0
G1 X200.00 Y52.40 E0.2495
G1 X195.00 Y52.80 E0
G1 X200.00 Y52.80 E0.2495
G1 X195.00 Y53.20 E0
G1 X200.00 Y53.20 E0.2495
G1 X195.00 Y53.60 E0
G1 X200.00 Y53.60 E0.2495
G1 X195.00 Y54.00 E0
G1 X200.00 Y54.00 E0.2495
G1 X195.00 Y54.40 E0
G1 X200.00 Y54.40 E0.2495
G1 E-1 F2700
G1 Z0.80 F7200

G1 X200.00 Y50.00 F7200
G1 E0.9978 F2700
G1 X205.00 Y50.00 E0.9978 F1800
G1 X205.00 Y55.00 E0.9978
G1 X200.00 Y55.00 E0.9978
G1 X200.00 Y50.00 E0.9978
G1 X200.00 Y50.40 E0
G1 X205.00 Y50.40 E0.2495
G1 X200.00 Y50.80 E0
G1 X205.00 Y50.80 E0.2495
G1 X200.00 Y51.20 E0
G1 X205.00 Y51.20 E0.2495
G1 X200.00 Y51.60 E0
G1 X205.00 Y51.60 E0.2495
G1 X200.00 Y52.00 E0
G1 X205.00 Y52.00 E0.2495
G1 X200.00 Y52.40 E0
G1 X205.00 Y52.40 E0.2495
G1 X200.00 Y52.80 E0
G1 X205.00 Y52.80 E0.2495
G1 X200.00 Y53.20 E0
G1 X205.00 Y53.20 E0.2495
G1 X200.00 Y53.60 E0
G1 X205.00 Y53.60 E0.2495
G1 X200.00 Y54.00 E0
G1 X205.00 Y54.00 E0.2495
G1 X200.00 Y54.40 E0
G1 X205.00 Y54.40 E0.2495
G1 E-1 F2700
G1 Z0.80 F7200

G1 X205.00 Y50.00 F7200
G1 E0.9978 F2700
G1 X210.00 Y50.00 E0.9978 F1800
G1 X210.00 Y55.00 E0.9978
G1 X205.00 Y55.00 E0.9978
G1 X205.00 Y50.00 E0.9978
G1 X205.00 Y50.40 E0
G1 X210.00 Y50.40 E0.2495
G1 X205.00 Y50.80 E0
G1 X210.00 Y50.80 E0.2495
G1 X205.00 Y51.20 E0
G1 X210.00 Y51.20 E0.2495
G1 X205.00 Y51.60 E0
G1 X210.00 Y51.60 E0.2495
G1 X205.00 Y52.00 E0
G1 X210.00 Y52.00 E0.2495
G1 X205.00 Y52.40 E0
G1 X210.00 Y52.40 E0.2495
G1 X205.00 Y52.80 E0
G1 X210.00 Y52.80 E0.2495
G1 X205.00 Y53.20 E0
G1 X210.00 Y53.20 E0.2495
G1 X205.00 Y53.60 E0
G1 X210.00 Y53.60 E0.2495
G1 X205.00 Y54.00 E0
G1 X210.00 Y54.00 E0.2495
G1 X205.00 Y54.40 E0
G1 X210.00 Y54.40 E0.2495
G1 E-1 F2700
G1 Z0.80 F7200

; ============ 列印完成 ============
G1 Z20 F7200
G28 X Y
M104 S0
M140 S0
M107
M84
M30
